{
"type": "FeatureCollection",
"name": "service_projects",
"crs": { "type": "name", "properties": { "name": "urn:ogc:def:crs:OGC:1.3:CRS84" } },
"xy_coordinate_resolution": 1e-07,
"features": [
{ "type": "Feature", "properties": { "service": "Школа", "service_type_id": 22, "type_id": "school_550", "capacity": 550, "floors_count": 3, "plot_length_min": 120.0, "plot_length_max": 160.0, "plot_width_min": 90.0, "plot_width_max": 120.0, "address": "5 к4, Петергофское шоссе, Yugo-Zapad, округ Юго-Запад, Saint Petersburg, Northwestern Federal District, 198330, Russia", "osm_type": "way", "osm_id": 42273865, "osm_url": "https://www.openstreetmap.org/way/42273865", "urban_service_id": null, "plot_source": null, "floors_source": null }, "geometry": { "type": "Polygon", "coordinates": [ [ [ 30.2028162, 59.848565 ], [ 30.2015325, 59.8485377 ], [ 30.2015429, 59.8484118 ], [ 30.2020476, 59.8484225 ], [ 30.2020691, 59.8481642 ], [ 30.2015733, 59.8481537 ], [ 30.201584, 59.8480272 ], [ 30.2028544, 59.8480542 ], [ 30.2028443, 59.8481779 ], [ 30.202323, 59.8481668 ], [ 30.2023012, 59.8484285 ], [ 30.2028268, 59.8484396 ], [ 30.2028162, 59.848565 ] ] ] } },
{ "type": "Feature", "properties": { "service": "Школа", "service_type_id": 22, "type_id": "school_825", "capacity": 825, "floors_count": 4, "plot_length_min": 140.0, "plot_length_max": 180.0, "plot_width_min": 90.0, "plot_width_max": 140.0, "address": "20 к3, Колпинское шоссе, Славянка, Shushary, Saint Petersburg, Northwestern Federal District, 196628, Russia", "osm_type": "way", "osm_id": 139855509, "osm_url": "https://www.openstreetmap.org/way/139855509", "urban_service_id": null, "plot_source": null, "floors_source": null }, "geometry": { "type": "Polygon", "coordinates": [ [ [ 30.4655877, 59.7332604 ], [ 30.4655787, 59.7333753 ], [ 30.4657764, 59.7333791 ], [ 30.4657598, 59.7335886 ], [ 30.4654531, 59.7335827 ], [ 30.4654413, 59.733732 ], [ 30.4660868, 59.7337444 ], [ 30.4660722, 59.7339297 ], [ 30.4641644, 59.7338928 ], [ 30.4641784, 59.7337169 ], [ 30.4648633, 59.7337301 ], [ 30.4648758, 59.7335725 ], [ 30.4645577, 59.7335664 ], [ 30.4645751, 59.7333458 ], [ 30.4647851, 59.7333498 ], [ 30.4647933, 59.7332451 ], [ 30.4655877, 59.7332604 ] ] ] } },
{ "type": "Feature", "properties": { "service": "Школа", "service_type_id": 22, "type_id": "school_1100", "capacity": 1100, "floors_count": 4, "plot_length_min": 150.0, "plot_length_max": 220.0, "plot_width_min": 120.0, "plot_width_max": 160.0, "address": "9 к2 с1, Верхне-Каменская улица, округ Коломяги, Saint Petersburg, Northwestern Federal District, 197373, Russia", "osm_type": "way", "osm_id": 1268542756, "osm_url": "https://www.openstreetmap.org/way/1268542756", "urban_service_id": null, "plot_source": null, "floors_source": null }, "geometry": { "type": "Polygon", "coordinates": [ [ [ 30.2123153, 60.0384086 ], [ 30.2122695, 60.0384076 ], [ 30.2122268, 60.0389144 ], [ 30.2120969, 60.0389116 ], [ 30.2121003, 60.0388723 ], [ 30.2119046, 60.0388682 ], [ 30.2119351, 60.0385051 ], [ 30.2108603, 60.0384823 ], [ 30.2108399, 60.0387249 ], [ 30.211537, 60.0387397 ], [ 30.2115233, 60.0389025 ], [ 30.2104954, 60.0388807 ], [ 30.2105379, 60.0383784 ], [ 30.2105443, 60.0383024 ], [ 30.2105652, 60.0380538 ], [ 30.2115113, 60.0380738 ], [ 30.2115126, 60.0380589 ], [ 30.2123432, 60.0380764 ], [ 30.2123153, 60.0384086 ] ] ] } },
{ "type": "Feature", "properties": { "service": "Детский сад", "service_type_id": 21, "type_id": "kindergarten_140", "capacity": 140, "floors_count": 2, "plot_length_min": 70.0, "plot_length_max": 100.0, "plot_width_min": 60.0, "plot_width_max": 90.0, "address": "11 к2, улица Коллонтай, Klochki, Невский округ, Saint Petersburg, Northwestern Federal District, 193313, Russia", "osm_type": "way", "osm_id": 28202955, "osm_url": "https://www.openstreetmap.org/way/28202955", "urban_service_id": null, "plot_source": null, "floors_source": null }, "geometry": { "type": "Polygon", "coordinates": [ [ [ 30.4554417, 59.9148568 ], [ 30.4554672, 59.914528 ], [ 30.4556896, 59.9145322 ], [ 30.4556771, 59.9146925 ], [ 30.4560059, 59.9146987 ], [ 30.4560183, 59.9145385 ], [ 30.4562401, 59.9145427 ], [ 30.4562148, 59.914869 ], [ 30.4559897, 59.9148647 ], [ 30.455998, 59.9147574 ], [ 30.4556714, 59.9147512 ], [ 30.4556629, 59.914861 ], [ 30.4554417, 59.9148568 ] ] ] } },
{ "type": "Feature", "properties": { "service": "Детский сад", "service_type_id": 21, "type_id": "kindergarten_220", "capacity": 220, "floors_count": 3, "plot_length_min": 80.0, "plot_length_max": 120.0, "plot_width_min": 70.0, "plot_width_max": 100.0, "address": "99 к5, Пулковское шоссе, Pulkovsky Meridian District, Saint Petersburg, Northwestern Federal District, 196140, Russia", "osm_type": "way", "osm_id": 1340484069, "osm_url": "https://www.openstreetmap.org/way/1340484069", "urban_service_id": null, "plot_source": null, "floors_source": null }, "geometry": { "type": "Polygon", "coordinates": [ [ [ 30.3059898, 59.7532965 ], [ 30.3061743, 59.7533003 ], [ 30.306174, 59.7533037 ], [ 30.3062064, 59.7533044 ], [ 30.3062078, 59.7532863 ], [ 30.3064028, 59.7532903 ], [ 30.3064015, 59.753307 ], [ 30.306428, 59.7533075 ], [ 30.3064295, 59.7532874 ], [ 30.3064657, 59.7532881 ], [ 30.3064653, 59.7532939 ], [ 30.3064964, 59.7532946 ], [ 30.3064974, 59.7532814 ], [ 30.3066133, 59.7532838 ], [ 30.3066122, 59.753297 ], [ 30.3066443, 59.7532975 ], [ 30.3066447, 59.7532918 ], [ 30.3066825, 59.7532925 ], [ 30.3066809, 59.7533127 ], [ 30.3067075, 59.7533132 ], [ 30.3067087, 59.7532965 ], [ 30.3069064, 59.7533005 ], [ 30.3069052, 59.7533161 ], [ 30.3071172, 59.7533204 ], [ 30.3071134, 59.7533692 ], [ 30.3071383, 59.7533697 ], [ 30.3071316, 59.7534567 ], [ 30.3071066, 59.7534562 ], [ 30.3071042, 59.7534867 ], [ 30.3070936, 59.7534866 ], [ 30.3070928, 59.7534968 ], [ 30.3070727, 59.7534965 ], [ 30.3070725, 59.7534992 ], [ 30.3069434, 59.7534965 ], [ 30.306942, 59.7535159 ], [ 30.3061331, 59.7534993 ], [ 30.3061347, 59.75348 ], [ 30.3060085, 59.7534774 ], [ 30.3060087, 59.7534751 ], [ 30.305988, 59.7534747 ], [ 30.3059888, 59.7534641 ], [ 30.3059768, 59.7534639 ], [ 30.3059793, 59.7534312 ], [ 30.3059569, 59.7534307 ], [ 30.3059635, 59.7533451 ], [ 30.305986, 59.7533456 ], [ 30.3059898, 59.7532965 ] ] ] } },
{ "type": "Feature", "properties": { "service": "Детский сад", "service_type_id": 21, "type_id": "kindergarten_280", "capacity": 280, "floors_count": 3, "plot_length_min": 110.0, "plot_length_max": 150.0, "plot_width_min": 90.0, "plot_width_max": 130.0, "address": "16 к2, улица Кустодиева, округ Суздальское, Saint Petersburg, Northwestern Federal District, 194291, Russia", "osm_type": "way", "osm_id": 23130101, "osm_url": "https://www.openstreetmap.org/way/23130101", "urban_service_id": null, "plot_source": null, "floors_source": null }, "geometry": { "type": "Polygon", "coordinates": [ [ [ 30.3586366, 60.0467374 ], [ 30.3584096, 60.0467328 ], [ 30.3584221, 60.0465696 ], [ 30.3581008, 60.0465631 ], [ 30.3580881, 60.0467263 ], [ 30.3578592, 60.0467218 ], [ 30.3578846, 60.0463941 ], [ 30.3581135, 60.0463987 ], [ 30.3581054, 60.0465027 ], [ 30.3584268, 60.0465091 ], [ 30.3584348, 60.0464052 ], [ 30.3586619, 60.0464097 ], [ 30.3586366, 60.0467374 ] ] ] } },
{ "type": "Feature", "properties": { "service": "Поликлиника", "service_type_id": 28, "type_id": "polyclinic_spb_49", "capacity": 750, "floors_count": 5, "plot_length_min": 70.0, "plot_length_max": 120.0, "plot_width_min": 50.0, "plot_width_max": 90.0, "address": "Поликлиника №49, 12, Ланская улица, Vyborg Side, округ Ланское, Saint Petersburg, Northwestern Federal District, 197343, Russia", "osm_type": "way", "osm_id": 23048458, "osm_url": "https://www.openstreetmap.org/way/23048458", "urban_service_id": null, "plot_source": null, "floors_source": null }, "geometry": { "type": "Polygon", "coordinates": [ [ [ 30.3204272, 59.9995397 ], [ 30.3194543, 59.99952 ], [ 30.319465, 59.9993843 ], [ 30.3199411, 59.9993939 ], [ 30.3204379, 59.999404 ], [ 30.3204272, 59.9995397 ] ] ] } },
{ "type": "Feature", "properties": { "service": "Поликлиника", "service_type_id": 28, "type_id": "polyclinic_volgodonsk_1", "capacity": 600, "floors_count": 3, "plot_length_min": 80.0, "plot_length_max": 110.0, "plot_width_min": 50.0, "plot_width_max": 80.0, "address": "Поликлиника №1, 106, Lenina Street, 8, Старый город, Volgodonsk, Rostov Oblast, 347360, Russia", "osm_type": "way", "osm_id": 104048492, "osm_url": "https://www.openstreetmap.org/way/104048492", "urban_service_id": null, "plot_source": null, "floors_source": null }, "geometry": { "type": "Polygon", "coordinates": [ [ [ 42.1643641, 47.5099599 ], [ 42.1633898, 47.5099357 ], [ 42.1633952, 47.509826 ], [ 42.1638814, 47.509838 ], [ 42.1643695, 47.5098502 ], [ 42.1643641, 47.5099599 ] ] ] } },
{ "type": "Feature", "properties": { "service": "Поликлиника", "service_type_id": 28, "type_id": "polyclinic_kazan_20", "capacity": 400, "floors_count": 5, "plot_length_min": 90.0, "plot_length_max": 140.0, "plot_width_min": 60.0, "plot_width_max": 100.0, "address": "23, улица Академика Сахарова, Азино-1, Советский район, Kazan, городской округ Казань, Tatarstan, Volga Federal District, 420100, Russia", "osm_type": "relation", "osm_id": 18102614, "osm_url": "https://www.openstreetmap.org/relation/18102614", "urban_service_id": null, "plot_source": null, "floors_source": null }, "geometry": { "type": "Polygon", "coordinates": [ [ [ 49.2258551, 55.7811358 ], [ 49.2253935, 55.7811291 ], [ 49.2249506, 55.7811227 ], [ 49.2249676, 55.7807501 ], [ 49.2251849, 55.7807532 ], [ 49.2251836, 55.7807815 ], [ 49.2258708, 55.7807914 ], [ 49.2258551, 55.7811358 ] ], [ [ 49.225441, 55.7810296 ], [ 49.225444, 55.7809342 ], [ 49.2252834, 55.7809326 ], [ 49.2252805, 55.781028 ], [ 49.225441, 55.7810296 ] ] ] } },
{ "type": "Feature", "properties": { "service": "Детский сад", "service_type_id": 21, "type_id": "kindergarten_90_232597978", "capacity": 90, "floors_count": 2, "plot_length_min": 40.0, "plot_length_max": 50.0, "plot_width_min": 35.0, "plot_width_max": 45.0, "address": "Заводская улица, 69-й км, 69, посёлок Платформа 69-й км", "osm_type": "way", "osm_id": 232597978, "osm_url": "https://www.openstreetmap.org/way/232597978", "urban_service_id": 603449.0, "plot_source": "osm", "floors_source": "osm" }, "geometry": { "type": "Polygon", "coordinates": [ [ [ 30.2316447, 60.5092346 ], [ 30.2316345, 60.5093524 ], [ 30.2320087, 60.5093602 ], [ 30.2320093, 60.5093527 ], [ 30.2320752, 60.509354 ], [ 30.2320824, 60.509269 ], [ 30.2320165, 60.5092677 ], [ 30.2320171, 60.5092596 ], [ 30.2317434, 60.5092538 ], [ 30.2317388, 60.5092402 ], [ 30.2317212, 60.5092293 ], [ 30.2316949, 60.5092242 ], [ 30.2316671, 60.5092262 ], [ 30.2316447, 60.5092346 ] ] ] } },
{ "type": "Feature", "properties": { "service": "Детский сад", "service_type_id": 21, "type_id": "kindergarten_140_151288058", "capacity": 140, "floors_count": 2, "plot_length_min": 60.0, "plot_length_max": 75.0, "plot_width_min": 55.0, "plot_width_max": 65.0, "address": "Берёзовый пер., 1, городской посёлок Мга", "osm_type": "way", "osm_id": 151288058, "osm_url": "https://www.openstreetmap.org/way/151288058", "urban_service_id": 603008.0, "plot_source": "osm", "floors_source": "osm" }, "geometry": { "type": "Polygon", "coordinates": [ [ [ 31.059975, 59.7593738 ], [ 31.0608593, 59.7593867 ], [ 31.0608653, 59.7592843 ], [ 31.059981, 59.7592713 ], [ 31.059975, 59.7593738 ] ] ] } },
{ "type": "Feature", "properties": { "service": "Детский сад", "service_type_id": 21, "type_id": "kindergarten_160_87199684", "capacity": 160, "floors_count": 2, "plot_length_min": 95.0, "plot_length_max": 120.0, "plot_width_min": 55.0, "plot_width_max": 70.0, "address": "просп. Мельникова, 18, посёлок Любань", "osm_type": "way", "osm_id": 87199684, "osm_url": "https://www.openstreetmap.org/way/87199684", "urban_service_id": 603279.0, "plot_source": "osm", "floors_source": "osm" }, "geometry": { "type": "Polygon", "coordinates": [ [ [ 31.2500966, 59.3668765 ], [ 31.2495343, 59.3668689 ], [ 31.2495318, 59.3669182 ], [ 31.2493076, 59.3669153 ], [ 31.2493017, 59.36703 ], [ 31.2495259, 59.3670329 ], [ 31.2495285, 59.3669816 ], [ 31.2500908, 59.3669892 ], [ 31.2500882, 59.3670405 ], [ 31.250306, 59.3670434 ], [ 31.2503119, 59.3669287 ], [ 31.250094, 59.3669258 ], [ 31.2500966, 59.3668765 ] ] ] } },
{ "type": "Feature", "properties": { "service": "Детский сад", "service_type_id": 21, "type_id": "kindergarten_280_209142581", "capacity": 280, "floors_count": 2, "plot_length_min": 100.0, "plot_length_max": 125.0, "plot_width_min": 75.0, "plot_width_max": 95.0, "address": "ул. Максима Горького, 7А", "osm_type": "way", "osm_id": 209142581, "osm_url": "https://www.openstreetmap.org/way/209142581", "urban_service_id": 603426.0, "plot_source": "osm", "floors_source": "osm" }, "geometry": { "type": "Polygon", "coordinates": [ [ [ 28.0906701, 59.1143386 ], [ 28.0906601, 59.114024 ], [ 28.0904382, 59.1140258 ], [ 28.0904433, 59.1141845 ], [ 28.0901277, 59.1141872 ], [ 28.0901226, 59.1140264 ], [ 28.0898886, 59.1140284 ], [ 28.0898986, 59.1143445 ], [ 28.0901355, 59.1143426 ], [ 28.0901325, 59.1142459 ], [ 28.0904482, 59.1142432 ], [ 28.0904513, 59.1143405 ], [ 28.0906701, 59.1143386 ] ] ] } },
{ "type": "Feature", "properties": { "service": "Детский сад", "service_type_id": 21, "type_id": "kindergarten_320_92091499", "capacity": 320, "floors_count": 2, "plot_length_min": 100.0, "plot_length_max": 120.0, "plot_width_min": 60.0, "plot_width_max": 75.0, "address": "Невская ул., 2, микрорайон Южный", "osm_type": "way", "osm_id": 92091499, "osm_url": "https://www.openstreetmap.org/way/92091499", "urban_service_id": 603042.0, "plot_source": "osm", "floors_source": "osm" }, "geometry": { "type": "Polygon", "coordinates": [ [ [ 30.6530952, 59.9917317 ], [ 30.6530762, 59.9919974 ], [ 30.652667, 59.9919901 ], [ 30.652671, 59.9919352 ], [ 30.6527677, 59.9919369 ], [ 30.6527767, 59.991813 ], [ 30.652521, 59.9918085 ], [ 30.6525123, 59.9919317 ], [ 30.6525599, 59.9919325 ], [ 30.652544, 59.9921564 ], [ 30.6527648, 59.9921603 ], [ 30.6527701, 59.9920875 ], [ 30.6529934, 59.9920916 ], [ 30.6529881, 59.9921665 ], [ 30.6531839, 59.99217 ], [ 30.653192, 59.9920559 ], [ 30.6534228, 59.99206 ], [ 30.6534302, 59.9919575 ], [ 30.6532868, 59.9919549 ], [ 30.6532945, 59.991847 ], [ 30.6534304, 59.9918495 ], [ 30.6534383, 59.9917379 ], [ 30.6530952, 59.9917317 ] ] ] } },
{ "type": "Feature", "properties": { "service": "Детский сад", "service_type_id": 21, "type_id": "kindergarten_560_181736570", "capacity": 560, "floors_count": 2, "plot_length_min": 105.0, "plot_length_max": 125.0, "plot_width_min": 85.0, "plot_width_max": 105.0, "address": "микрорайон 1А, 57", "osm_type": "way", "osm_id": 181736570, "osm_url": "https://www.openstreetmap.org/way/181736570", "urban_service_id": 603000.0, "plot_source": "osm", "floors_source": "osm" }, "geometry": { "type": "Polygon", "coordinates": [ [ [ 33.5638571, 59.6446011 ], [ 33.5638541, 59.6444152 ], [ 33.56347, 59.6444167 ], [ 33.5634733, 59.6446117 ], [ 33.5632393, 59.6446126 ], [ 33.5632374, 59.644499 ], [ 33.5629784, 59.6444999 ], [ 33.5629766, 59.6443827 ], [ 33.563353, 59.6443814 ], [ 33.5633509, 59.6442595 ], [ 33.5629552, 59.644261 ], [ 33.5629532, 59.6441379 ], [ 33.5631978, 59.644137 ], [ 33.5631958, 59.6440174 ], [ 33.5634592, 59.6440163 ], [ 33.5634628, 59.6442399 ], [ 33.5638533, 59.6442383 ], [ 33.5638498, 59.6440203 ], [ 33.5641, 59.6440193 ], [ 33.5641018, 59.6441284 ], [ 33.5643349, 59.6441275 ], [ 33.5643368, 59.644249 ], [ 33.5639973, 59.6442503 ], [ 33.5639993, 59.6443679 ], [ 33.5643448, 59.6443666 ], [ 33.5643468, 59.6444936 ], [ 33.5641022, 59.6444944 ], [ 33.564104, 59.6446001 ], [ 33.5638571, 59.6446011 ] ] ] } },
{ "type": "Feature", "properties": { "service": "Детский сад", "service_type_id": 21, "type_id": "kindergarten_640_305104824", "capacity": 640, "floors_count": 2, "plot_length_min": 135.0, "plot_length_max": 165.0, "plot_width_min": 75.0, "plot_width_max": 95.0, "address": "ул. Слепнёва, 16", "osm_type": "way", "osm_id": 305104824, "osm_url": "https://www.openstreetmap.org/way/305104824", "urban_service_id": 603146.0, "plot_source": "osm", "floors_source": "osm" }, "geometry": { "type": "Polygon", "coordinates": [ [ [ 30.0926234, 59.5555181 ], [ 30.0926152, 59.5556157 ], [ 30.0929205, 59.5556224 ], [ 30.0929114, 59.5557284 ], [ 30.0925953, 59.5557214 ], [ 30.0925831, 59.5558623 ], [ 30.0928402, 59.555868 ], [ 30.0928286, 59.5560011 ], [ 30.0931347, 59.556008 ], [ 30.0931527, 59.5557984 ], [ 30.0935341, 59.5558069 ], [ 30.0935162, 59.556014 ], [ 30.0937458, 59.5560192 ], [ 30.0937581, 59.5558779 ], [ 30.0940332, 59.555884 ], [ 30.0940407, 59.5557946 ], [ 30.093775, 59.5557887 ], [ 30.0937896, 59.5556199 ], [ 30.0940671, 59.5556261 ], [ 30.0940762, 59.555521 ], [ 30.093796, 59.5555147 ], [ 30.0938057, 59.555403 ], [ 30.0936187, 59.5553988 ], [ 30.0936015, 59.5555983 ], [ 30.0931501, 59.555588 ], [ 30.0931666, 59.5553961 ], [ 30.0929229, 59.5553906 ], [ 30.0929113, 59.5555245 ], [ 30.0926234, 59.5555181 ] ] ] } },
{ "type": "Feature", "properties": { "service": "Детский сад", "service_type_id": 21, "type_id": "kindergarten_140_707860265", "capacity": 140, "floors_count": 2, "plot_length_min": 65.0, "plot_length_max": 80.0, "plot_width_min": 50.0, "plot_width_max": 60.0, "address": "Луга, микрорайон Городок, 272", "osm_type": "way", "osm_id": 707860265, "osm_url": "https://www.openstreetmap.org/way/707860265", "urban_service_id": 603124.0, "plot_source": "osm", "floors_source": "osm" }, "geometry": { "type": "Polygon", "coordinates": [ [ [ 29.8401511, 58.6905321 ], [ 29.8401616, 58.6906619 ], [ 29.8407762, 58.6906484 ], [ 29.8407657, 58.6905186 ], [ 29.8401511, 58.6905321 ] ] ] } },
{ "type": "Feature", "properties": { "service": "Детский сад", "service_type_id": 21, "type_id": "kindergarten_160_281578330", "capacity": 160, "floors_count": 2, "plot_length_min": 70.0, "plot_length_max": 85.0, "plot_width_min": 50.0, "plot_width_max": 60.0, "address": "ул. Братьев Пожарских, 9А, село Путилово", "osm_type": "way", "osm_id": 281578330, "osm_url": "https://www.openstreetmap.org/way/281578330", "urban_service_id": 603157.0, "plot_source": "osm", "floors_source": "osm" }, "geometry": { "type": "Polygon", "coordinates": [ [ [ 31.4566629, 59.8702927 ], [ 31.4566688, 59.8701684 ], [ 31.4569917, 59.8701722 ], [ 31.4569932, 59.8701426 ], [ 31.4572289, 59.8701453 ], [ 31.4572275, 59.8701749 ], [ 31.4575585, 59.8701789 ], [ 31.4575527, 59.8703032 ], [ 31.4566629, 59.8702927 ] ] ] } },
{ "type": "Feature", "properties": { "service": "Детский сад", "service_type_id": 21, "type_id": "kindergarten_280_209537883", "capacity": 280, "floors_count": 2, "plot_length_min": 105.0, "plot_length_max": 130.0, "plot_width_min": 80.0, "plot_width_max": 95.0, "address": "ул. Грибоедова, 20А, Сланцы", "osm_type": "way", "osm_id": 209537883, "osm_url": "https://www.openstreetmap.org/way/209537883", "urban_service_id": 603453.0, "plot_source": "osm", "floors_source": "osm" }, "geometry": { "type": "Polygon", "coordinates": [ [ [ 28.0920895, 59.124077 ], [ 28.0920841, 59.1239055 ], [ 28.0918622, 59.1239073 ], [ 28.0918658, 59.1240181 ], [ 28.0916056, 59.1240204 ], [ 28.091602, 59.1239109 ], [ 28.0913746, 59.1239128 ], [ 28.0913781, 59.1240225 ], [ 28.0911335, 59.1240246 ], [ 28.09113, 59.1239161 ], [ 28.0909034, 59.123918 ], [ 28.0909089, 59.1240896 ], [ 28.09109, 59.1240881 ], [ 28.0910934, 59.1241915 ], [ 28.0913468, 59.1241892 ], [ 28.0913435, 59.1240846 ], [ 28.0916173, 59.1240823 ], [ 28.0916207, 59.1241888 ], [ 28.091876, 59.1241866 ], [ 28.0918726, 59.1240788 ], [ 28.0920895, 59.124077 ] ] ] } },
{ "type": "Feature", "properties": { "service": "Детский сад", "service_type_id": 21, "type_id": "kindergarten_320_92091473", "capacity": 320, "floors_count": 2, "plot_length_min": 95.0, "plot_length_max": 115.0, "plot_width_min": 70.0, "plot_width_max": 85.0, "address": "Невская ул., 16, микрорайон Южный", "osm_type": "way", "osm_id": 92091473, "osm_url": "https://www.openstreetmap.org/way/92091473", "urban_service_id": 603065.0, "plot_source": "osm", "floors_source": "osm" }, "geometry": { "type": "Polygon", "coordinates": [ [ [ 30.6472243, 59.9921782 ], [ 30.6472438, 59.9919095 ], [ 30.6476756, 59.9919174 ], [ 30.6476718, 59.9919723 ], [ 30.6475813, 59.9919706 ], [ 30.6475721, 59.9920945 ], [ 30.6478454, 59.9920995 ], [ 30.6478541, 59.991979 ], [ 30.6477811, 59.9919777 ], [ 30.6477975, 59.9917512 ], [ 30.6475553, 59.9917467 ], [ 30.6475499, 59.9918195 ], [ 30.6473267, 59.9918154 ], [ 30.6473321, 59.9917405 ], [ 30.6471364, 59.9917369 ], [ 30.647128, 59.991851 ], [ 30.6468972, 59.9918468 ], [ 30.6468899, 59.9919494 ], [ 30.6470331, 59.991952 ], [ 30.6470253, 59.9920599 ], [ 30.6468896, 59.9920574 ], [ 30.6468812, 59.992172 ], [ 30.6472243, 59.9921782 ] ] ] } },
{ "type": "Feature", "properties": { "service": "Детский сад", "service_type_id": 21, "type_id": "kindergarten_560_165333104", "capacity": 560, "floors_count": 2, "plot_length_min": 120.0, "plot_length_max": 145.0, "plot_width_min": 90.0, "plot_width_max": 110.0, "address": "ул. Молодцова, 12/2", "osm_type": "way", "osm_id": 165333104, "osm_url": "https://www.openstreetmap.org/way/165333104", "urban_service_id": 603288.0, "plot_source": "osm", "floors_source": "osm" }, "geometry": { "type": "Polygon", "coordinates": [ [ [ 30.2204058, 60.1429678 ], [ 30.2203954, 60.1430943 ], [ 30.2206633, 60.1430999 ], [ 30.2206536, 60.14322 ], [ 30.2203857, 60.1432144 ], [ 30.2203759, 60.1433353 ], [ 30.2206439, 60.1433409 ], [ 30.2206358, 60.1434382 ], [ 30.2208705, 60.1434431 ], [ 30.2208821, 60.1433003 ], [ 30.2208551, 60.1432997 ], [ 30.2208607, 60.1432305 ], [ 30.2213274, 60.1432403 ], [ 30.2213218, 60.1433095 ], [ 30.2212915, 60.1433089 ], [ 30.2212797, 60.1434517 ], [ 30.2215157, 60.1434567 ], [ 30.2215237, 60.1433585 ], [ 30.2217742, 60.1433638 ], [ 30.221779, 60.1433044 ], [ 30.221738, 60.1433036 ], [ 30.2217426, 60.1432477 ], [ 30.2213862, 60.1432402 ], [ 30.2213969, 60.1431075 ], [ 30.2217943, 60.1431159 ], [ 30.2217995, 60.1430516 ], [ 30.2217587, 60.1430507 ], [ 30.2217628, 60.1429988 ], [ 30.2215533, 60.1429944 ], [ 30.221561, 60.1428984 ], [ 30.2213327, 60.1428936 ], [ 30.2213221, 60.1430215 ], [ 30.2213494, 60.1430221 ], [ 30.2213455, 60.1430688 ], [ 30.2208746, 60.1430589 ], [ 30.2208784, 60.1430122 ], [ 30.2209054, 60.1430128 ], [ 30.2209159, 60.1428848 ], [ 30.2206813, 60.1428799 ], [ 30.2206737, 60.1429734 ], [ 30.2204058, 60.1429678 ] ] ] } },
{ "type": "Feature", "properties": { "service": "Детский сад", "service_type_id": 21, "type_id": "kindergarten_640_523516225", "capacity": 640, "floors_count": 2, "plot_length_min": 155.0, "plot_length_max": 190.0, "plot_width_min": 130.0, "plot_width_max": 160.0, "address": "ул. Дмитрия Кожемякина, 9", "osm_type": "way", "osm_id": 523516225, "osm_url": "https://www.openstreetmap.org/way/523516225", "urban_service_id": 603253.0, "plot_source": "osm", "floors_source": "osm" }, "geometry": { "type": "Polygon", "coordinates": [ [ [ 30.2226668, 60.1391731 ], [ 30.222431, 60.1391681 ], [ 30.2224479, 60.1389746 ], [ 30.2218939, 60.138963 ], [ 30.221876, 60.1391681 ], [ 30.2216282, 60.1391629 ], [ 30.2216392, 60.1390367 ], [ 30.221384, 60.1390314 ], [ 30.2213942, 60.1389134 ], [ 30.2218161, 60.1389223 ], [ 30.2218283, 60.1387815 ], [ 30.2214036, 60.1387726 ], [ 30.2214141, 60.1386516 ], [ 30.2216616, 60.1386567 ], [ 30.2216808, 60.1384361 ], [ 30.2219968, 60.1384427 ], [ 30.221976, 60.1386808 ], [ 30.221896, 60.1386792 ], [ 30.2218876, 60.1387762 ], [ 30.2224503, 60.138788 ], [ 30.2224695, 60.1385685 ], [ 30.2227217, 60.1385737 ], [ 30.2227116, 60.1386896 ], [ 30.2229872, 60.1386953 ], [ 30.2229766, 60.1388171 ], [ 30.2226742, 60.1388107 ], [ 30.2226629, 60.1389409 ], [ 30.2229604, 60.1389471 ], [ 30.2229497, 60.1390709 ], [ 30.2226762, 60.1390652 ], [ 30.2226668, 60.1391731 ] ] ] } },
{ "type": "Feature", "properties": { "service": "Детский сад", "service_type_id": 21, "type_id": "kindergarten_140_62366329", "capacity": 140, "floors_count": 2, "plot_length_min": 60.0, "plot_length_max": 75.0, "plot_width_min": 55.0, "plot_width_max": 70.0, "address": "ул. Володарского, 17А", "osm_type": "way", "osm_id": 62366329, "osm_url": "https://www.openstreetmap.org/way/62366329", "urban_service_id": 603032.0, "plot_source": "osm", "floors_source": "osm" }, "geometry": { "type": "Polygon", "coordinates": [ [ [ 30.1356792, 59.5647287 ], [ 30.1356257, 59.5647275 ], [ 30.1356212, 59.5647827 ], [ 30.1357187, 59.5647848 ], [ 30.1357229, 59.5647337 ], [ 30.1363271, 59.5647469 ], [ 30.1363229, 59.564798 ], [ 30.1364152, 59.5648 ], [ 30.1364198, 59.5647447 ], [ 30.1363788, 59.5647438 ], [ 30.1363882, 59.56463 ], [ 30.1356886, 59.5646147 ], [ 30.1356792, 59.5647287 ] ] ] } },
{ "type": "Feature", "properties": { "service": "Детский сад", "service_type_id": 21, "type_id": "kindergarten_160_62366493", "capacity": 160, "floors_count": 2, "plot_length_min": 65.0, "plot_length_max": 80.0, "plot_width_min": 45.0, "plot_width_max": 55.0, "address": "просп. 25 Октября, 30А", "osm_type": "way", "osm_id": 62366493, "osm_url": "https://www.openstreetmap.org/way/62366493", "urban_service_id": 603377.0, "plot_source": "osm", "floors_source": "osm" }, "geometry": { "type": "Polygon", "coordinates": [ [ [ 30.123281, 59.5720207 ], [ 30.1233174, 59.5720215 ], [ 30.1233251, 59.5719296 ], [ 30.1232276, 59.5719274 ], [ 30.1232233, 59.5719785 ], [ 30.1226192, 59.5719652 ], [ 30.1226234, 59.5719141 ], [ 30.1225132, 59.5719117 ], [ 30.1225055, 59.5720036 ], [ 30.1225566, 59.5720048 ], [ 30.1225502, 59.572082 ], [ 30.1232746, 59.5720979 ], [ 30.123281, 59.5720207 ] ] ] } },
{ "type": "Feature", "properties": { "service": "Детский сад", "service_type_id": 21, "type_id": "kindergarten_280_93067283", "capacity": 280, "floors_count": 3, "plot_length_min": 80.0, "plot_length_max": 100.0, "plot_width_min": 70.0, "plot_width_max": 85.0, "address": "ул. Ломоносова, 14\n", "osm_type": "way", "osm_id": 93067283, "osm_url": "https://www.openstreetmap.org/way/93067283", "urban_service_id": 603374.0, "plot_source": "osm", "floors_source": "osm" }, "geometry": { "type": "Polygon", "coordinates": [ [ [ 32.3566582, 59.8954353 ], [ 32.356661, 59.8952876 ], [ 32.3564787, 59.8952867 ], [ 32.3561526, 59.8952852 ], [ 32.3559424, 59.8952842 ], [ 32.3556499, 59.8952828 ], [ 32.3556469, 59.8954304 ], [ 32.3566582, 59.8954353 ] ] ] } },
{ "type": "Feature", "properties": { "service": "Детский сад", "service_type_id": 21, "type_id": "kindergarten_320_142628531", "capacity": 320, "floors_count": 2, "plot_length_min": 135.0, "plot_length_max": 165.0, "plot_width_min": 75.0, "plot_width_max": 90.0, "address": "Шоссейная ул., 7А, городской посёлок Федоровское", "osm_type": "way", "osm_id": 142628531, "osm_url": "https://www.openstreetmap.org/way/142628531", "urban_service_id": 603314.0, "plot_source": "osm", "floors_source": "osm" }, "geometry": { "type": "Polygon", "coordinates": [ [ [ 30.524032, 59.6621306 ], [ 30.5242101, 59.6621352 ], [ 30.5242217, 59.6620199 ], [ 30.5244681, 59.6620263 ], [ 30.5244573, 59.662134 ], [ 30.5246471, 59.662139 ], [ 30.5246607, 59.6620042 ], [ 30.524951, 59.6620117 ], [ 30.5249374, 59.6621462 ], [ 30.5251136, 59.6621508 ], [ 30.5251254, 59.6620345 ], [ 30.5253875, 59.6620414 ], [ 30.525376, 59.6621561 ], [ 30.5255429, 59.6621604 ], [ 30.5255713, 59.6618788 ], [ 30.5253983, 59.6618743 ], [ 30.5253858, 59.6619989 ], [ 30.5249219, 59.6619869 ], [ 30.524944, 59.6617677 ], [ 30.5246998, 59.6617613 ], [ 30.524677, 59.6619881 ], [ 30.5242104, 59.6619759 ], [ 30.5242232, 59.6618488 ], [ 30.5240609, 59.6618446 ], [ 30.524032, 59.6621306 ] ] ] } },
{ "type": "Feature", "properties": { "service": "Детский сад", "service_type_id": 21, "type_id": "kindergarten_560_34160142", "capacity": 560, "floors_count": 2, "plot_length_min": 125.0, "plot_length_max": 155.0, "plot_width_min": 105.0, "plot_width_max": 130.0, "address": "Молодёжная ул., 50", "osm_type": "way", "osm_id": 34160142, "osm_url": "https://www.openstreetmap.org/way/34160142", "urban_service_id": 603254.0, "plot_source": "osm", "floors_source": "osm" }, "geometry": { "type": "Polygon", "coordinates": [ [ [ 29.0914252, 59.9154178 ], [ 29.0912968, 59.9154196 ], [ 29.0912909, 59.9153206 ], [ 29.0914063, 59.9153189 ], [ 29.0913981, 59.9151784 ], [ 29.0909266, 59.9151853 ], [ 29.0909318, 59.9152742 ], [ 29.0907638, 59.9152766 ], [ 29.090756, 59.9151461 ], [ 29.0908528, 59.915103 ], [ 29.0908438, 59.9149491 ], [ 29.0905632, 59.9149531 ], [ 29.0905725, 59.9151092 ], [ 29.0906732, 59.9151491 ], [ 29.0906804, 59.9152732 ], [ 29.0905433, 59.9152753 ], [ 29.0905382, 59.9151875 ], [ 29.0900862, 59.915194 ], [ 29.0900946, 59.9153386 ], [ 29.0902007, 59.915337 ], [ 29.0902062, 59.9154313 ], [ 29.0901012, 59.9154329 ], [ 29.0901104, 59.9155899 ], [ 29.0905641, 59.9155834 ], [ 29.0905567, 59.915459 ], [ 29.0904683, 59.9154602 ], [ 29.0904591, 59.9153035 ], [ 29.0905806, 59.9153018 ], [ 29.0905817, 59.9153208 ], [ 29.0906896, 59.9153422 ], [ 29.0907575, 59.9153412 ], [ 29.0908865, 59.9153181 ], [ 29.0908859, 59.9153084 ], [ 29.0910142, 59.9153064 ], [ 29.0910225, 59.9154479 ], [ 29.0909627, 59.9154488 ], [ 29.0909699, 59.9155715 ], [ 29.0914338, 59.9155648 ], [ 29.0914252, 59.9154178 ] ] ] } },
{ "type": "Feature", "properties": { "service": "Детский сад", "service_type_id": 21, "type_id": "kindergarten_640_285210965", "capacity": 640, "floors_count": 2, "plot_length_min": 155.0, "plot_length_max": 190.0, "plot_width_min": 90.0, "plot_width_max": 110.0, "address": "Пролетарская ул., 39", "osm_type": "way", "osm_id": 285210965, "osm_url": "https://www.openstreetmap.org/way/285210965", "urban_service_id": 603061.0, "plot_source": "osm", "floors_source": "osm" }, "geometry": { "type": "Polygon", "coordinates": [ [ [ 31.0342079, 59.9349269 ], [ 31.034682, 59.9349341 ], [ 31.0346847, 59.9348897 ], [ 31.0346505, 59.9348892 ], [ 31.0346606, 59.9347213 ], [ 31.0349085, 59.934725 ], [ 31.0349009, 59.9348535 ], [ 31.0351714, 59.9348577 ], [ 31.0351642, 59.9349775 ], [ 31.0348929, 59.9349734 ], [ 31.0348923, 59.9349835 ], [ 31.0347402, 59.9349811 ], [ 31.0347327, 59.9351076 ], [ 31.0351624, 59.9351141 ], [ 31.0351553, 59.9352322 ], [ 31.0348891, 59.9352283 ], [ 31.0348811, 59.9353618 ], [ 31.0346324, 59.9353581 ], [ 31.0346424, 59.9351913 ], [ 31.0346636, 59.9351917 ], [ 31.0346684, 59.9351137 ], [ 31.0341808, 59.9351063 ], [ 31.0341759, 59.9351874 ], [ 31.0342037, 59.9351878 ], [ 31.0341951, 59.9353312 ], [ 31.0339425, 59.9353275 ], [ 31.0339484, 59.9352304 ], [ 31.0336871, 59.9352266 ], [ 31.0336946, 59.9351009 ], [ 31.0340234, 59.9351059 ], [ 31.0340245, 59.9350905 ], [ 31.03397, 59.9350896 ], [ 31.0339759, 59.9349903 ], [ 31.0340262, 59.934991 ], [ 31.0340275, 59.93497 ], [ 31.0336929, 59.9349649 ], [ 31.0337002, 59.9348429 ], [ 31.0339558, 59.9348467 ], [ 31.0339632, 59.934724 ], [ 31.034222, 59.9347278 ], [ 31.0342129, 59.9348813 ], [ 31.034181, 59.9348809 ], [ 31.0341784, 59.9349265 ], [ 31.0342079, 59.9349269 ] ] ] } },
{ "type": "Feature", "properties": { "service": "Детский сад", "service_type_id": 21, "type_id": "kindergarten_140_275299817", "capacity": 140, "floors_count": 2, "plot_length_min": 60.0, "plot_length_max": 70.0, "plot_width_min": 45.0, "plot_width_max": 60.0, "address": "Больничная ул., 20А", "osm_type": "way", "osm_id": 275299817, "osm_url": "https://www.openstreetmap.org/way/275299817", "urban_service_id": 602966.0, "plot_source": "osm", "floors_source": "osm" }, "geometry": { "type": "Polygon", "coordinates": [ [ [ 34.1808816, 59.5126157 ], [ 34.1814874, 59.5126103 ], [ 34.1814841, 59.5125071 ], [ 34.1810436, 59.5125111 ], [ 34.1808784, 59.5125127 ], [ 34.1808816, 59.5126157 ] ] ] } },
{ "type": "Feature", "properties": { "service": "Школа", "service_type_id": 22, "type_id": "school_54_81822270", "capacity": 54, "floors_count": 2, "plot_length_min": 55.0, "plot_length_max": 65.0, "plot_width_min": 30.0, "plot_width_max": 35.0, "address": "Санкт-Петербург, Гаккелевская, 19", "osm_type": "way", "osm_id": 81822270, "osm_url": "https://www.openstreetmap.org/way/81822270", "urban_service_id": 561674.0, "plot_source": "osm", "floors_source": "osm" }, "geometry": { "type": "Polygon", "coordinates": [ [ [ 30.2556665, 59.9994999 ], [ 30.2553484, 59.9995148 ], [ 30.2553292, 59.9994111 ], [ 30.25555, 59.9994004 ], [ 30.2555483, 59.9993908 ], [ 30.2556862, 59.9993664 ], [ 30.2558061, 59.9993961 ], [ 30.2558083, 59.9994071 ], [ 30.255911, 59.9994185 ], [ 30.2558723, 59.9995257 ], [ 30.2556665, 59.9994999 ] ] ] } },
{ "type": "Feature", "properties": { "service": "Школа", "service_type_id": 22, "type_id": "school_155_23244576", "capacity": 155, "floors_count": 4, "plot_length_min": 110.0, "plot_length_max": 130.0, "plot_width_min": 75.0, "plot_width_max": 95.0, "address": "Санкт-Петербург, Синявинская улица, 15", "osm_type": "way", "osm_id": 23244576, "osm_url": "https://www.openstreetmap.org/way/23244576", "urban_service_id": 561087.0, "plot_source": "osm", "floors_source": "osm" }, "geometry": { "type": "Polygon", "coordinates": [ [ [ 30.4191921, 59.9570899 ], [ 30.4180892, 59.9570683 ], [ 30.4180764, 59.9572332 ], [ 30.4183849, 59.9572392 ], [ 30.4183911, 59.9571596 ], [ 30.4188546, 59.9571687 ], [ 30.4188485, 59.9572483 ], [ 30.4191793, 59.9572548 ], [ 30.4191921, 59.9570899 ] ] ] } },
{ "type": "Feature", "properties": { "service": "Школа", "service_type_id": 22, "type_id": "school_254_37132936", "capacity": 254, "floors_count": 2, "plot_length_min": 65.0, "plot_length_max": 80.0, "plot_width_min": 55.0, "plot_width_max": 65.0, "address": "Санкт-Петербург,  посёлок Металлострой, Школьная улица, 8", "osm_type": "way", "osm_id": 37132936, "osm_url": "https://www.openstreetmap.org/way/37132936", "urban_service_id": 561409.0, "plot_source": "osm", "floors_source": "osm" }, "geometry": { "type": "Polygon", "coordinates": [ [ [ 30.5678221, 59.8093349 ], [ 30.5678475, 59.808986 ], [ 30.5687909, 59.8090027 ], [ 30.5687651, 59.8093554 ], [ 30.5685164, 59.809351 ], [ 30.568535, 59.8090955 ], [ 30.5684102, 59.8090933 ], [ 30.5684022, 59.8092026 ], [ 30.5683589, 59.8092018 ], [ 30.5683559, 59.8092444 ], [ 30.5682558, 59.8092426 ], [ 30.568259, 59.8092001 ], [ 30.568217, 59.8091993 ], [ 30.5682252, 59.8090882 ], [ 30.5681058, 59.8090861 ], [ 30.5680873, 59.8093396 ], [ 30.5678221, 59.8093349 ] ] ] } },
{ "type": "Feature", "properties": { "service": "Школа", "service_type_id": 22, "type_id": "school_296_32701970", "capacity": 296, "floors_count": 4, "plot_length_min": 80.0, "plot_length_max": 95.0, "plot_width_min": 60.0, "plot_width_max": 70.0, "address": "Санкт-Петербург, улица Зайцева, 14", "osm_type": "way", "osm_id": 32701970, "osm_url": "https://www.openstreetmap.org/way/32701970", "urban_service_id": 561508.0, "plot_source": "osm", "floors_source": "osm" }, "geometry": { "type": "Polygon", "coordinates": [ [ [ 30.2668038, 59.8735285 ], [ 30.2671779, 59.8735363 ], [ 30.2675825, 59.8735447 ], [ 30.2676012, 59.8733266 ], [ 30.2673479, 59.8733214 ], [ 30.2673418, 59.8733936 ], [ 30.2670628, 59.8733877 ], [ 30.2670688, 59.8733169 ], [ 30.2668222, 59.8733117 ], [ 30.2668038, 59.8735285 ] ] ] } },
{ "type": "Feature", "properties": { "service": "Школа", "service_type_id": 22, "type_id": "school_372_28058820", "capacity": 372, "floors_count": 3, "plot_length_min": 150.0, "plot_length_max": 185.0, "plot_width_min": 110.0, "plot_width_max": 135.0, "address": "Санкт-Петербург, улица Тельмана, 34", "osm_type": "way", "osm_id": 28058820, "osm_url": "https://www.openstreetmap.org/way/28058820", "urban_service_id": 561583.0, "plot_source": "osm", "floors_source": "osm" }, "geometry": { "type": "Polygon", "coordinates": [ [ [ 30.4719706, 59.8923127 ], [ 30.4724534, 59.892322 ], [ 30.472432, 59.892593 ], [ 30.4718916, 59.8925827 ], [ 30.4718826, 59.8926986 ], [ 30.4731736, 59.8927234 ], [ 30.4731827, 59.8926071 ], [ 30.4726448, 59.8925968 ], [ 30.4726662, 59.8923242 ], [ 30.473159, 59.8923337 ], [ 30.4731682, 59.8922164 ], [ 30.4719799, 59.8921937 ], [ 30.4719706, 59.8923127 ] ] ] } },
{ "type": "Feature", "properties": { "service": "Школа", "service_type_id": 22, "type_id": "school_428_33059056", "capacity": 428, "floors_count": 2, "plot_length_min": 110.0, "plot_length_max": 135.0, "plot_width_min": 90.0, "plot_width_max": 115.0, "address": "Санкт-Петербург, улица Зины Портновой, 56", "osm_type": "way", "osm_id": 33059056, "osm_url": "https://www.openstreetmap.org/way/33059056", "urban_service_id": 561498.0, "plot_source": "osm", "floors_source": "osm" }, "geometry": { "type": "Polygon", "coordinates": [ [ [ 30.2583144, 59.8480641 ], [ 30.2583042, 59.8481868 ], [ 30.2579526, 59.8481795 ], [ 30.2579631, 59.8480523 ], [ 30.2577253, 59.8480474 ], [ 30.2576957, 59.8484071 ], [ 30.2579265, 59.848412 ], [ 30.2579366, 59.8482893 ], [ 30.2582983, 59.8482968 ], [ 30.2582883, 59.8484189 ], [ 30.258525, 59.8484239 ], [ 30.2585543, 59.8480691 ], [ 30.2583144, 59.8480641 ] ] ] } },
{ "type": "Feature", "properties": { "service": "Школа", "service_type_id": 22, "type_id": "school_468_30699630", "capacity": 468, "floors_count": 4, "plot_length_min": 120.0, "plot_length_max": 145.0, "plot_width_min": 60.0, "plot_width_max": 70.0, "address": "Санкт-Петербург, Алтайская улица, 15", "osm_type": "way", "osm_id": 30699630, "osm_url": "https://www.openstreetmap.org/way/30699630", "urban_service_id": 561216.0, "plot_source": "osm", "floors_source": "osm" }, "geometry": { "type": "Polygon", "coordinates": [ [ [ 30.3256177, 59.8490489 ], [ 30.3267239, 59.8490714 ], [ 30.3267302, 59.8489927 ], [ 30.3269945, 59.8489981 ], [ 30.3270045, 59.8488745 ], [ 30.3265859, 59.848866 ], [ 30.3265802, 59.8489366 ], [ 30.3257917, 59.8489205 ], [ 30.3257973, 59.8488499 ], [ 30.3253581, 59.848841 ], [ 30.3253482, 59.8489647 ], [ 30.3256241, 59.8489702 ], [ 30.3256177, 59.8490489 ] ] ] } },
{ "type": "Feature", "properties": { "service": "Школа", "service_type_id": 22, "type_id": "school_501_76223913", "capacity": 501, "floors_count": 4, "plot_length_min": 115.0, "plot_length_max": 140.0, "plot_width_min": 65.0, "plot_width_max": 75.0, "address": "Санкт-Петербург, Кронштадт, улица Лебедева, 5А", "osm_type": "way", "osm_id": 76223913, "osm_url": "https://www.openstreetmap.org/way/76223913", "urban_service_id": 561421.0, "plot_source": "osm", "floors_source": "osm" }, "geometry": { "type": "Polygon", "coordinates": [ [ [ 29.7864512, 59.9870657 ], [ 29.7864157, 59.9866441 ], [ 29.7876651, 59.9866185 ], [ 29.7877004, 59.9870364 ], [ 29.7874976, 59.9870406 ], [ 29.7874769, 59.9867948 ], [ 29.7866797, 59.9868112 ], [ 29.7867007, 59.9870605 ], [ 29.7864512, 59.9870657 ] ] ] } },
{ "type": "Feature", "properties": { "service": "Школа", "service_type_id": 22, "type_id": "school_559_47841893", "capacity": 559, "floors_count": 4, "plot_length_min": 135.0, "plot_length_max": 165.0, "plot_width_min": 105.0, "plot_width_max": 130.0, "address": "Санкт-Петербург, Колпино, Раумская улица, 9", "osm_type": "way", "osm_id": 47841893, "osm_url": "https://www.openstreetmap.org/way/47841893", "urban_service_id": 561413.0, "plot_source": "osm", "floors_source": "osm" }, "geometry": { "type": "Polygon", "coordinates": [ [ [ 30.5850209, 59.7373482 ], [ 30.5862993, 59.7373717 ], [ 30.5863078, 59.7372517 ], [ 30.5857904, 59.7372422 ], [ 30.5858091, 59.7369798 ], [ 30.5863318, 59.7369894 ], [ 30.5863404, 59.7368685 ], [ 30.5856992, 59.7368568 ], [ 30.5850596, 59.736845 ], [ 30.5850512, 59.7369637 ], [ 30.5855646, 59.7369731 ], [ 30.5855459, 59.7372363 ], [ 30.5850294, 59.7372268 ], [ 30.5850209, 59.7373482 ] ] ] } },
{ "type": "Feature", "properties": { "service": "Школа", "service_type_id": 22, "type_id": "school_601_22985130", "capacity": 601, "floors_count": 4, "plot_length_min": 70.0, "plot_length_max": 85.0, "plot_width_min": 65.0, "plot_width_max": 75.0, "address": "Санкт-Петербург, Торжковская улица, 30", "osm_type": "way", "osm_id": 22985130, "osm_url": "https://www.openstreetmap.org/way/22985130", "urban_service_id": 561637.0, "plot_source": "osm", "floors_source": "osm" }, "geometry": { "type": "Polygon", "coordinates": [ [ [ 30.3172124, 59.9919195 ], [ 30.318321, 59.991942 ], [ 30.3183326, 59.9918029 ], [ 30.3172242, 59.9917805 ], [ 30.3172124, 59.9919195 ] ] ] } },
{ "type": "Feature", "properties": { "service": "Школа", "service_type_id": 22, "type_id": "school_654_23247192", "capacity": 654, "floors_count": 4, "plot_length_min": 175.0, "plot_length_max": 210.0, "plot_width_min": 110.0, "plot_width_max": 135.0, "address": "Санкт-Петербург, Белградская улица, 20к2", "osm_type": "way", "osm_id": 23247192, "osm_url": "https://www.openstreetmap.org/way/23247192", "urban_service_id": 561354.0, "plot_source": "osm", "floors_source": "osm" }, "geometry": { "type": "Polygon", "coordinates": [ [ [ 30.3677257, 59.8621141 ], [ 30.3677165, 59.8622345 ], [ 30.3682357, 59.8622449 ], [ 30.3682152, 59.8625071 ], [ 30.3676946, 59.8624967 ], [ 30.3676852, 59.8626187 ], [ 30.3689732, 59.8626444 ], [ 30.3689826, 59.8625225 ], [ 30.368455, 59.8625119 ], [ 30.3684754, 59.8622491 ], [ 30.369003, 59.8622596 ], [ 30.3690122, 59.8621399 ], [ 30.3677257, 59.8621141 ] ] ] } },
{ "type": "Feature", "properties": { "service": "Школа", "service_type_id": 22, "type_id": "school_705_30676516", "capacity": 705, "floors_count": 4, "plot_length_min": 180.0, "plot_length_max": 220.0, "plot_width_min": 85.0, "plot_width_max": 105.0, "address": "Санкт-Петербург, Купчинская ул., 15, корп. 3", "osm_type": "way", "osm_id": 30676516, "osm_url": "https://www.openstreetmap.org/way/30676516", "urban_service_id": 561362.0, "plot_source": "osm", "floors_source": "osm" }, "geometry": { "type": "Polygon", "coordinates": [ [ [ 30.3822281, 59.8378963 ], [ 30.382238, 59.8377748 ], [ 30.3809416, 59.837749 ], [ 30.3809319, 59.8378689 ], [ 30.3814658, 59.8378795 ], [ 30.3814445, 59.838142 ], [ 30.3809131, 59.8381314 ], [ 30.3809035, 59.8382499 ], [ 30.3821945, 59.8382756 ], [ 30.3822041, 59.8381568 ], [ 30.3816828, 59.8381463 ], [ 30.381704, 59.8378859 ], [ 30.3822281, 59.8378963 ] ] ] } },
{ "type": "Feature", "properties": { "service": "Школа", "service_type_id": 22, "type_id": "school_729_164228357", "capacity": 729, "floors_count": 3, "plot_length_min": 145.0, "plot_length_max": 175.0, "plot_width_min": 110.0, "plot_width_max": 130.0, "address": "улица Пролетарской Диктатуры, 47, Тихвин, Ленинградская область, 187555", "osm_type": "way", "osm_id": 164228357, "osm_url": "https://www.openstreetmap.org/way/164228357", "urban_service_id": 616291.0, "plot_source": "osm", "floors_source": "osm" }, "geometry": { "type": "Polygon", "coordinates": [ [ [ 33.5121459, 59.6414279 ], [ 33.5128866, 59.6414252 ], [ 33.5128902, 59.6416358 ], [ 33.5133334, 59.641634 ], [ 33.5133299, 59.6414235 ], [ 33.5140579, 59.6414208 ], [ 33.5140554, 59.6412715 ], [ 33.5133636, 59.641274 ], [ 33.5133627, 59.6412283 ], [ 33.5134169, 59.6412281 ], [ 33.5134158, 59.6411611 ], [ 33.5127821, 59.6411635 ], [ 33.5127833, 59.6412305 ], [ 33.5128334, 59.6412303 ], [ 33.5128341, 59.641276 ], [ 33.5121434, 59.6412786 ], [ 33.5121459, 59.6414279 ] ] ] } },
{ "type": "Feature", "properties": { "service": "Школа", "service_type_id": 22, "type_id": "school_779_33097974", "capacity": 779, "floors_count": 3, "plot_length_min": 140.0, "plot_length_max": 170.0, "plot_width_min": 105.0, "plot_width_max": 125.0, "address": "Санкт-Петербург, улица Здоровцева, 33к2", "osm_type": "way", "osm_id": 33097974, "osm_url": "https://www.openstreetmap.org/way/33097974", "urban_service_id": 561605.0, "plot_source": "osm", "floors_source": "osm" }, "geometry": { "type": "Polygon", "coordinates": [ [ [ 30.1588816, 59.8272829 ], [ 30.1601669, 59.8273107 ], [ 30.1601762, 59.8272001 ], [ 30.1596422, 59.8271886 ], [ 30.1596651, 59.8269176 ], [ 30.1601618, 59.8269283 ], [ 30.1601715, 59.8268147 ], [ 30.1589742, 59.8267888 ], [ 30.1589645, 59.8269038 ], [ 30.1594487, 59.8269143 ], [ 30.1594259, 59.8271822 ], [ 30.1588913, 59.8271706 ], [ 30.1588816, 59.8272829 ] ] ] } },
{ "type": "Feature", "properties": { "service": "Школа", "service_type_id": 22, "type_id": "school_825_57383938", "capacity": 825, "floors_count": 3, "plot_length_min": 150.0, "plot_length_max": 160.0, "plot_width_min": 90.0, "plot_width_max": 110.0, "address": "Санкт-Петербург, улица Восстания, 8", "osm_type": "way", "osm_id": 57383938, "osm_url": "https://www.openstreetmap.org/way/57383938", "urban_service_id": 561454.0, "plot_source": "osm", "floors_source": "osm" }, "geometry": { "type": "Polygon", "coordinates": [ [ [ 30.3600958, 59.9346264 ], [ 30.3596833, 59.9346182 ], [ 30.3596851, 59.9345943 ], [ 30.3597104, 59.9342765 ], [ 30.3596317, 59.9342749 ], [ 30.3596335, 59.9342535 ], [ 30.3592385, 59.9342456 ], [ 30.3592281, 59.9342753 ], [ 30.3591991, 59.9343041 ], [ 30.3591381, 59.9343161 ], [ 30.359144, 59.9343618 ], [ 30.3591027, 59.9343603 ], [ 30.3590633, 59.9343589 ], [ 30.3590848, 59.9343173 ], [ 30.3590334, 59.9343045 ], [ 30.3589968, 59.9342765 ], [ 30.3589893, 59.9342406 ], [ 30.358521, 59.9342312 ], [ 30.3584938, 59.9345723 ], [ 30.3584921, 59.9345943 ], [ 30.3576819, 59.9345781 ], [ 30.3576441, 59.9345773 ], [ 30.3576551, 59.9344376 ], [ 30.3577619, 59.9344397 ], [ 30.3580941, 59.9344468 ], [ 30.3582562, 59.9344501 ], [ 30.3582787, 59.9341914 ], [ 30.3576667, 59.9341792 ], [ 30.3576794, 59.9340211 ], [ 30.3577915, 59.9340233 ], [ 30.3582593, 59.9340327 ], [ 30.3582619, 59.9339996 ], [ 30.3590131, 59.9340147 ], [ 30.3590163, 59.933973 ], [ 30.3591554, 59.9339758 ], [ 30.3592544, 59.9339778 ], [ 30.359251, 59.934022 ], [ 30.3600033, 59.9340371 ], [ 30.3599951, 59.9341398 ], [ 30.360066, 59.9341412 ], [ 30.360064, 59.9341669 ], [ 30.3599801, 59.9341652 ], [ 30.3599585, 59.9344369 ], [ 30.3601613, 59.934441 ], [ 30.3601608, 59.9344473 ], [ 30.360153, 59.9345454 ], [ 30.3601024, 59.9345444 ], [ 30.3600958, 59.9346264 ] ] ] } },
{ "type": "Feature", "properties": { "service": "Школа", "service_type_id": 22, "type_id": "school_873_30697511", "capacity": 873, "floors_count": 4, "plot_length_min": 105.0, "plot_length_max": 125.0, "plot_width_min": 95.0, "plot_width_max": 115.0, "address": "Санкт-Петербург, улица Ленсовета, 87к2", "osm_type": "way", "osm_id": 30697511, "osm_url": "https://www.openstreetmap.org/way/30697511", "urban_service_id": 561224.0, "plot_source": "osm", "floors_source": "osm" }, "geometry": { "type": "Polygon", "coordinates": [ [ [ 30.3407633, 59.8356938 ], [ 30.3410056, 59.8356987 ], [ 30.3416826, 59.8357124 ], [ 30.3419714, 59.8357182 ], [ 30.3420063, 59.835298 ], [ 30.3417847, 59.8352935 ], [ 30.3417618, 59.8355694 ], [ 30.3410139, 59.8355543 ], [ 30.3410362, 59.8352857 ], [ 30.3407976, 59.8352809 ], [ 30.3407633, 59.8356938 ] ] ] } },
{ "type": "Feature", "properties": { "service": "Школа", "service_type_id": 22, "type_id": "school_917_64811705", "capacity": 917, "floors_count": 3, "plot_length_min": 105.0, "plot_length_max": 130.0, "plot_width_min": 105.0, "plot_width_max": 125.0, "address": "Санкт-Петербург, посёлок Шушары, Первомайская улица, 6", "osm_type": "way", "osm_id": 64811705, "osm_url": "https://www.openstreetmap.org/way/64811705", "urban_service_id": 561718.0, "plot_source": "osm", "floors_source": "osm" }, "geometry": { "type": "Polygon", "coordinates": [ [ [ 30.3786431, 59.8087024 ], [ 30.3788514, 59.808721 ], [ 30.3787834, 59.8089165 ], [ 30.3792041, 59.8089541 ], [ 30.3793076, 59.8086569 ], [ 30.3795558, 59.8086791 ], [ 30.3794523, 59.8089763 ], [ 30.3793976, 59.8089714 ], [ 30.3793578, 59.8090853 ], [ 30.3796896, 59.8091149 ], [ 30.3796504, 59.8092275 ], [ 30.3791367, 59.8091816 ], [ 30.3791758, 59.809069 ], [ 30.3789098, 59.8090453 ], [ 30.3788204, 59.8090373 ], [ 30.3787602, 59.8092097 ], [ 30.3784066, 59.8091781 ], [ 30.3784666, 59.8090057 ], [ 30.3785355, 59.8090118 ], [ 30.3786431, 59.8087024 ] ] ] } },
{ "type": "Feature", "properties": { "service": "Школа", "service_type_id": 22, "type_id": "school_960_23030787", "capacity": 960, "floors_count": 4, "plot_length_min": 100.0, "plot_length_max": 120.0, "plot_width_min": 95.0, "plot_width_max": 115.0, "address": "Санкт-Петербург, просп. Науки, 30, корп. 3", "osm_type": "way", "osm_id": 23030787, "osm_url": "https://www.openstreetmap.org/way/23030787", "urban_service_id": 561088.0, "plot_source": "osm", "floors_source": "osm" }, "geometry": { "type": "Polygon", "coordinates": [ [ [ 30.4181645, 60.0098917 ], [ 30.4184037, 60.0098965 ], [ 30.4184249, 60.0096238 ], [ 30.4185727, 60.0096268 ], [ 30.4185703, 60.0096578 ], [ 30.4192134, 60.0096707 ], [ 30.4192161, 60.0096355 ], [ 30.4193612, 60.0096384 ], [ 30.4193401, 60.0099108 ], [ 30.4195789, 60.0099156 ], [ 30.4195986, 60.0096621 ], [ 30.4195449, 60.009661 ], [ 30.4195464, 60.0096421 ], [ 30.4195552, 60.0095281 ], [ 30.4182519, 60.0095018 ], [ 30.4182427, 60.0096201 ], [ 30.4182413, 60.0096384 ], [ 30.4181844, 60.0096372 ], [ 30.4181645, 60.0098917 ] ] ] } },
{ "type": "Feature", "properties": { "service": "Школа", "service_type_id": 22, "type_id": "school_1099_484395240", "capacity": 1099, "floors_count": 3, "plot_length_min": 200.0, "plot_length_max": 240.0, "plot_width_min": 125.0, "plot_width_max": 155.0, "address": "деревня Старая, Колтуши, Всеволожский район, Ленинградская область", "osm_type": "way", "osm_id": 484395240, "osm_url": "https://www.openstreetmap.org/way/484395240", "urban_service_id": 616237.0, "plot_source": "osm", "floors_source": "osm" }, "geometry": { "type": "Polygon", "coordinates": [ [ [ 30.6481678, 59.9328425 ], [ 30.6477844, 59.932836 ], [ 30.6477903, 59.932752 ], [ 30.647914, 59.9327542 ], [ 30.6479213, 59.9326515 ], [ 30.6468595, 59.9326333 ], [ 30.6468397, 59.9329126 ], [ 30.6469158, 59.932914 ], [ 30.6469113, 59.9329769 ], [ 30.6470673, 59.9329796 ], [ 30.647063, 59.9330387 ], [ 30.6473263, 59.9330432 ], [ 30.6473311, 59.9329767 ], [ 30.6473986, 59.9329779 ], [ 30.6473933, 59.9330531 ], [ 30.6479137, 59.933062 ], [ 30.6479054, 59.93318 ], [ 30.647385, 59.9331711 ], [ 30.6471414, 59.9331669 ], [ 30.6471395, 59.9331931 ], [ 30.6466194, 59.9331841 ], [ 30.6466209, 59.9331625 ], [ 30.6461677, 59.9331547 ], [ 30.6461846, 59.9329155 ], [ 30.6464287, 59.9329197 ], [ 30.646428, 59.9329311 ], [ 30.6466383, 59.9329347 ], [ 30.64666, 59.9326298 ], [ 30.6464424, 59.9326261 ], [ 30.6464297, 59.9328053 ], [ 30.646207, 59.9328015 ], [ 30.6462318, 59.9324507 ], [ 30.6466662, 59.9324582 ], [ 30.6466689, 59.9324222 ], [ 30.6469739, 59.9324274 ], [ 30.6469714, 59.9324634 ], [ 30.648193, 59.9324843 ], [ 30.6481678, 59.9328425 ] ] ] } },
{ "type": "Feature", "properties": { "service": "Школа", "service_type_id": 22, "type_id": "school_2126_77617397", "capacity": 2126, "floors_count": 3, "plot_length_min": 130.0, "plot_length_max": 155.0, "plot_width_min": 120.0, "plot_width_max": 150.0, "address": "Санкт-Петербург, улица Черкасова, 7к2", "osm_type": "way", "osm_id": 77617397, "osm_url": "https://www.openstreetmap.org/way/77617397", "urban_service_id": 561098.0, "plot_source": "osm", "floors_source": "osm" }, "geometry": { "type": "Polygon", "coordinates": [ [ [ 30.4233861, 60.0244916 ], [ 30.4231081, 60.0244882 ], [ 30.4227278, 60.0245859 ], [ 30.4227021, 60.0245575 ], [ 30.4224987, 60.0246088 ], [ 30.4225551, 60.0246679 ], [ 30.422508, 60.0246805 ], [ 30.4225507, 60.0247247 ], [ 30.4225085, 60.024735 ], [ 30.4225746, 60.024807 ], [ 30.4231539, 60.0246631 ], [ 30.423925, 60.0246816 ], [ 30.4244813, 60.0248441 ], [ 30.4245677, 60.0247709 ], [ 30.4245275, 60.0247591 ], [ 30.4245791, 60.0247145 ], [ 30.4245216, 60.0246978 ], [ 30.4245857, 60.024643 ], [ 30.4243795, 60.0245812 ], [ 30.4243463, 60.0246058 ], [ 30.4240035, 60.0245049 ], [ 30.4238895, 60.0245045 ], [ 30.423897, 60.024453 ], [ 30.4239037, 60.0243411 ], [ 30.4240006, 60.0243415 ], [ 30.424021, 60.0240773 ], [ 30.423963, 60.0240766 ], [ 30.4239696, 60.0240161 ], [ 30.4238665, 60.023999 ], [ 30.423729, 60.0239844 ], [ 30.4236124, 60.0239799 ], [ 30.4234922, 60.0239796 ], [ 30.4233833, 60.0239843 ], [ 30.4232835, 60.0239877 ], [ 30.4231989, 60.0239994 ], [ 30.4231974, 60.0240671 ], [ 30.4231398, 60.0240667 ], [ 30.4231257, 60.0243303 ], [ 30.4232252, 60.0243284 ], [ 30.4232165, 60.024442 ], [ 30.423392, 60.0244426 ], [ 30.4233861, 60.0244916 ] ] ] } },
{ "type": "Feature", "properties": { "service": "Поликлиника", "service_type_id": 28, "type_id": "polyclinic_380_305477048", "capacity": 380, "floors_count": 4, "plot_length_min": 70.0, "plot_length_max": 85.0, "plot_width_min": 55.0, "plot_width_max": 70.0, "address": "улица Энергетиков, 4, деревня Новое Девяткино, Всеволожский район, Ленинградская область", "osm_type": "way", "osm_id": 305477048, "osm_url": "https://www.openstreetmap.org/way/305477048", "urban_service_id": 614611.0, "plot_source": "osm", "floors_source": "osm" }, "geometry": { "type": "Polygon", "coordinates": [ [ [ 30.4814143, 60.0561116 ], [ 30.4812989, 60.0561094 ], [ 30.4812969, 60.0561334 ], [ 30.4809818, 60.0561274 ], [ 30.4807475, 60.0561229 ], [ 30.4807499, 60.0560907 ], [ 30.4805414, 60.0560868 ], [ 30.4805512, 60.055955 ], [ 30.4806686, 60.0559573 ], [ 30.4806676, 60.0559721 ], [ 30.4808686, 60.0559759 ], [ 30.4808843, 60.0557633 ], [ 30.4812237, 60.0557698 ], [ 30.4812156, 60.0558795 ], [ 30.4812076, 60.0559879 ], [ 30.4812975, 60.0559896 ], [ 30.481299, 60.0559693 ], [ 30.4814247, 60.0559717 ], [ 30.4814143, 60.0561116 ] ] ] } },
{ "type": "Feature", "properties": { "service": "Поликлиника", "service_type_id": 28, "type_id": "polyclinic_380_665128227", "capacity": 380, "floors_count": 4, "plot_length_min": 95.0, "plot_length_max": 120.0, "plot_width_min": 90.0, "plot_width_max": 110.0, "address": "бульвар Авиаторов, 4, Гатчина, Ленинградская область, 188309", "osm_type": "way", "osm_id": 665128227, "osm_url": "https://www.openstreetmap.org/way/665128227", "urban_service_id": 614640.0, "plot_source": "osm", "floors_source": "osm" }, "geometry": { "type": "Polygon", "coordinates": [ [ [ 30.1008816, 59.5557835 ], [ 30.1000115, 59.5557642 ], [ 30.1000225, 59.5556328 ], [ 30.1003531, 59.5556401 ], [ 30.1003673, 59.5554689 ], [ 30.1006759, 59.5554757 ], [ 30.1006614, 59.55565 ], [ 30.1008922, 59.5556551 ], [ 30.1008816, 59.5557835 ] ] ] } },
{ "type": "Feature", "properties": { "service": "Поликлиника", "service_type_id": 28, "type_id": "polyclinic_150_147116312", "capacity": 150, "floors_count": 4, "plot_length_min": 80.0, "plot_length_max": 100.0, "plot_width_min": 75.0, "plot_width_max": 90.0, "address": "улица Боярова, 21, Тосно, Ленинградская область, 187000", "osm_type": "way", "osm_id": 147116312, "osm_url": "https://www.openstreetmap.org/way/147116312", "urban_service_id": 614627.0, "plot_source": "ratio", "floors_source": "osm" }, "geometry": { "type": "Polygon", "coordinates": [ [ [ 30.8795165, 59.5432552 ], [ 30.8782453, 59.5432346 ], [ 30.8782516, 59.5431275 ], [ 30.8786073, 59.5431332 ], [ 30.8786098, 59.5430912 ], [ 30.8785174, 59.5430897 ], [ 30.8785429, 59.5426606 ], [ 30.8788422, 59.5426655 ], [ 30.8788171, 59.5430887 ], [ 30.8786843, 59.5430866 ], [ 30.8786818, 59.54313 ], [ 30.8795231, 59.5431436 ], [ 30.8795165, 59.5432552 ] ] ] } },
{ "type": "Feature", "properties": { "service": "Поликлиника", "service_type_id": 28, "type_id": "polyclinic_330_34834994", "capacity": 330, "floors_count": 2, "plot_length_min": 70.0, "plot_length_max": 80.0, "plot_width_min": 45.0, "plot_width_max": 50.0, "address": "Комсомольская ул., 1, городской посёлок Советский", "osm_type": "way", "osm_id": 34834994, "osm_url": "https://www.openstreetmap.org/way/34834994", "urban_service_id": 614610.0, "plot_source": "ratio", "floors_source": "osm" }, "geometry": { "type": "Polygon", "coordinates": [ [ [ 28.6757999, 60.5306595 ], [ 28.6749963, 60.5306696 ], [ 28.6750037, 60.5308067 ], [ 28.6758073, 60.5307966 ], [ 28.6757999, 60.5306595 ] ] ] } },
{ "type": "Feature", "properties": { "service": "Поликлиника", "service_type_id": 28, "type_id": "polyclinic_620_62444424", "capacity": 620, "floors_count": 5, "plot_length_min": 80.0, "plot_length_max": 95.0, "plot_width_min": 70.0, "plot_width_max": 85.0, "address": "просп. Володарского, 32А, Луга", "osm_type": "way", "osm_id": 62444424, "osm_url": "https://www.openstreetmap.org/way/62444424", "urban_service_id": 614638.0, "plot_source": "ratio", "floors_source": "osm" }, "geometry": { "type": "Polygon", "coordinates": [ [ [ 29.8478553, 58.7247665 ], [ 29.8477606, 58.7247687 ], [ 29.8472143, 58.7247808 ], [ 29.8472196, 58.7248435 ], [ 29.8470739, 58.7248468 ], [ 29.8470851, 58.7249805 ], [ 29.8474482, 58.7249725 ], [ 29.8474615, 58.7251306 ], [ 29.8477843, 58.7251234 ], [ 29.8477778, 58.7250449 ], [ 29.8477711, 58.7249652 ], [ 29.8477316, 58.7249661 ], [ 29.8477271, 58.7249128 ], [ 29.847832, 58.7249104 ], [ 29.8478237, 58.724813 ], [ 29.8478578, 58.7248111 ], [ 29.8478553, 58.7247665 ] ] ] } },
{ "type": "Feature", "properties": { "service": "Поликлиника", "service_type_id": 28, "type_id": "polyclinic_702_23940457", "capacity": 702, "floors_count": 3, "plot_length_min": 95.0, "plot_length_max": 115.0, "plot_width_min": 65.0, "plot_width_max": 75.0, "address": "Санкт-Петербург, Ленская улица, 4к1", "osm_type": "way", "osm_id": 23940457, "osm_url": "https://www.openstreetmap.org/way/23940457", "urban_service_id": 1448837.0, "plot_source": "ratio", "floors_source": "osm" }, "geometry": { "type": "Polygon", "coordinates": [ [ [ 30.481678, 59.941537 ], [ 30.4819036, 59.9415406 ], [ 30.4819675, 59.9415133 ], [ 30.4820001, 59.9415141 ], [ 30.4819981, 59.9415337 ], [ 30.4822089, 59.9415387 ], [ 30.4824024, 59.9415432 ], [ 30.482404, 59.9415215 ], [ 30.4824325, 59.941522 ], [ 30.4824808, 59.9415515 ], [ 30.4827199, 59.9415569 ], [ 30.4827465, 59.9412701 ], [ 30.4827173, 59.9412556 ], [ 30.4826865, 59.9412388 ], [ 30.4825294, 59.9412359 ], [ 30.4824772, 59.9412073 ], [ 30.4823471, 59.9412046 ], [ 30.4823449, 59.9412318 ], [ 30.4821078, 59.9412269 ], [ 30.48211, 59.9411998 ], [ 30.4819826, 59.9411971 ], [ 30.4819197, 59.9412265 ], [ 30.4817681, 59.9412193 ], [ 30.4816988, 59.9412503 ], [ 30.481678, 59.941537 ] ] ] } },
{ "type": "Feature", "properties": { "service": "Поликлиника", "service_type_id": 28, "type_id": "polyclinic_758_23130682", "capacity": 758, "floors_count": 4, "plot_length_min": 100.0, "plot_length_max": 125.0, "plot_width_min": 65.0, "plot_width_max": 80.0, "address": null, "osm_type": "way", "osm_id": 23130682, "osm_url": "https://www.openstreetmap.org/way/23130682", "urban_service_id": 1448825.0, "plot_source": "ratio", "floors_source": "osm" }, "geometry": { "type": "Polygon", "coordinates": [ [ [ 30.3452255, 60.0558411 ], [ 30.3442449, 60.0558214 ], [ 30.3442347, 60.0559433 ], [ 30.3446436, 60.0559515 ], [ 30.344725, 60.0559531 ], [ 30.3452153, 60.055963 ], [ 30.3452255, 60.0558411 ] ] ] } },
{ "type": "Feature", "properties": { "service": "Поликлиника", "service_type_id": 28, "type_id": "polyclinic_829_37408319", "capacity": 829, "floors_count": 3, "plot_length_min": 105.0, "plot_length_max": 125.0, "plot_width_min": 70.0, "plot_width_max": 85.0, "address": null, "osm_type": "way", "osm_id": 37408319, "osm_url": "https://www.openstreetmap.org/way/37408319", "urban_service_id": 1448792.0, "plot_source": "ratio", "floors_source": "osm" }, "geometry": { "type": "Polygon", "coordinates": [ [ [ 30.5731224, 59.8100558 ], [ 30.5731065, 59.810284 ], [ 30.5724124, 59.8102712 ], [ 30.5724285, 59.8100392 ], [ 30.5725958, 59.8100422 ], [ 30.5725878, 59.8101576 ], [ 30.5729064, 59.8101635 ], [ 30.5729142, 59.8100519 ], [ 30.5731224, 59.8100558 ] ] ] } },
{ "type": "Feature", "properties": { "service": "Поликлиника", "service_type_id": 28, "type_id": "polyclinic_895_66703848", "capacity": 895, "floors_count": 4, "plot_length_min": 110.0, "plot_length_max": 135.0, "plot_width_min": 70.0, "plot_width_max": 85.0, "address": null, "osm_type": "way", "osm_id": 66703848, "osm_url": "https://www.openstreetmap.org/way/66703848", "urban_service_id": 1448773.0, "plot_source": "ratio", "floors_source": "osm" }, "geometry": { "type": "Polygon", "coordinates": [ [ [ 30.3070757, 59.9278403 ], [ 30.3072663, 59.9278442 ], [ 30.3073055, 59.927845 ], [ 30.3080858, 59.927861 ], [ 30.3081062, 59.927857 ], [ 30.3081243, 59.9278482 ], [ 30.3081245, 59.9278481 ], [ 30.3081358, 59.9278373 ], [ 30.308139, 59.9278271 ], [ 30.3079705, 59.9276644 ], [ 30.3079496, 59.9276442 ], [ 30.3077276, 59.9276409 ], [ 30.307815, 59.9277402 ], [ 30.3072648, 59.9277356 ], [ 30.3072171, 59.9277352 ], [ 30.3072134, 59.9276791 ], [ 30.3072639, 59.9276769 ], [ 30.3072633, 59.927634 ], [ 30.3070688, 59.9276292 ], [ 30.3070757, 59.9278403 ] ] ] } },
{ "type": "Feature", "properties": { "service": "Поликлиника", "service_type_id": 28, "type_id": "polyclinic_933_23793226", "capacity": 933, "floors_count": 3, "plot_length_min": 110.0, "plot_length_max": 135.0, "plot_width_min": 70.0, "plot_width_max": 85.0, "address": "Санкт-Петербург, Коммуны, 36", "osm_type": "way", "osm_id": 23793226, "osm_url": "https://www.openstreetmap.org/way/23793226", "urban_service_id": 1448652.0, "plot_source": "ratio", "floors_source": "osm" }, "geometry": { "type": "Polygon", "coordinates": [ [ [ 30.4983495, 59.950869 ], [ 30.4983038, 59.9511416 ], [ 30.4983628, 59.9511749 ], [ 30.4985424, 59.9511783 ], [ 30.4986131, 59.9512142 ], [ 30.4990806, 59.951223 ], [ 30.4991563, 59.9511899 ], [ 30.4993094, 59.9511929 ], [ 30.4993899, 59.9511518 ], [ 30.4994105, 59.9508891 ], [ 30.4983495, 59.950869 ] ] ] } },
{ "type": "Feature", "properties": { "service": "Поликлиника", "service_type_id": 28, "type_id": "polyclinic_998_51164795", "capacity": 998, "floors_count": 2, "plot_length_min": 115.0, "plot_length_max": 140.0, "plot_width_min": 75.0, "plot_width_max": 90.0, "address": null, "osm_type": "way", "osm_id": 51164795, "osm_url": "https://www.openstreetmap.org/way/51164795", "urban_service_id": 1448670.0, "plot_source": "ratio", "floors_source": "osm" }, "geometry": { "type": "Polygon", "coordinates": [ [ [ 30.3443607, 59.9726411 ], [ 30.3443688, 59.972543 ], [ 30.3444961, 59.9725455 ], [ 30.3445019, 59.9724747 ], [ 30.3441041, 59.9724667 ], [ 30.3441021, 59.9724905 ], [ 30.3434087, 59.9724767 ], [ 30.3434037, 59.9725383 ], [ 30.3434543, 59.9725393 ], [ 30.3434475, 59.9726227 ], [ 30.3436671, 59.9726271 ], [ 30.3443607, 59.9726411 ] ] ] } },
{ "type": "Feature", "properties": { "service": "Поликлиника", "service_type_id": 28, "type_id": "polyclinic_1186_23772555", "capacity": 1186, "floors_count": 3, "plot_length_min": 125.0, "plot_length_max": 150.0, "plot_width_min": 80.0, "plot_width_max": 100.0, "address": null, "osm_type": "way", "osm_id": 23772555, "osm_url": "https://www.openstreetmap.org/way/23772555", "urban_service_id": 1448744.0, "plot_source": "ratio", "floors_source": "osm" }, "geometry": { "type": "Polygon", "coordinates": [ [ [ 30.2111334, 59.9912693 ], [ 30.2111093, 59.9915508 ], [ 30.2113392, 59.9915557 ], [ 30.2113934, 59.9915305 ], [ 30.2114283, 59.9915312 ], [ 30.2114263, 59.9915528 ], [ 30.2115974, 59.9915564 ], [ 30.2117568, 59.9915598 ], [ 30.2118263, 59.9915613 ], [ 30.2118283, 59.9915397 ], [ 30.2118635, 59.9915403 ], [ 30.2119189, 59.9915679 ], [ 30.2121473, 59.9915727 ], [ 30.2121716, 59.9912913 ], [ 30.2121126, 59.9912675 ], [ 30.2119687, 59.9912643 ], [ 30.211905, 59.9912309 ], [ 30.2117853, 59.9912283 ], [ 30.211783, 59.9912551 ], [ 30.2115273, 59.9912497 ], [ 30.2115296, 59.9912229 ], [ 30.2114108, 59.9912205 ], [ 30.2113467, 59.9912499 ], [ 30.2111928, 59.9912465 ], [ 30.2111334, 59.9912693 ] ] ] } },
{ "type": "Feature", "properties": { "service": "Поликлиника", "service_type_id": 28, "type_id": "polyclinic_1280_30790413", "capacity": 1280, "floors_count": 4, "plot_length_min": 130.0, "plot_length_max": 160.0, "plot_width_min": 85.0, "plot_width_max": 100.0, "address": null, "osm_type": "way", "osm_id": 30790413, "osm_url": "https://www.openstreetmap.org/way/30790413", "urban_service_id": 1448816.0, "plot_source": "ratio", "floors_source": "osm" }, "geometry": { "type": "Polygon", "coordinates": [ [ [ 30.3842472, 59.8769229 ], [ 30.385236, 59.8769426 ], [ 30.3852392, 59.8769001 ], [ 30.3852458, 59.8768124 ], [ 30.3842572, 59.8767927 ], [ 30.384254, 59.876834 ], [ 30.3842472, 59.8769229 ] ] ] } },
{ "type": "Feature", "properties": { "service": "Поликлиника", "service_type_id": 28, "type_id": "polyclinic_1377_29985066", "capacity": 1377, "floors_count": 4, "plot_length_min": 135.0, "plot_length_max": 165.0, "plot_width_min": 85.0, "plot_width_max": 105.0, "address": null, "osm_type": "way", "osm_id": 29985066, "osm_url": "https://www.openstreetmap.org/way/29985066", "urban_service_id": 1448802.0, "plot_source": "ratio", "floors_source": "osm" }, "geometry": { "type": "Polygon", "coordinates": [ [ [ 30.3978207, 59.8689114 ], [ 30.3978304, 59.8687832 ], [ 30.3968469, 59.8687638 ], [ 30.3968373, 59.868892 ], [ 30.3973461, 59.868902 ], [ 30.3978207, 59.8689114 ] ] ] } },
{ "type": "Feature", "properties": { "service": "Полицейский участок", "service_type_id": 78, "type_id": "police_63247943", "capacity": 214, "floors_count": 2, "plot_length_min": 45.0, "plot_length_max": 55.0, "plot_width_min": 35.0, "plot_width_max": 45.0, "address": "улица Тамбасова 9", "osm_type": "way", "osm_id": 63247943, "osm_url": "https://www.openstreetmap.org/way/63247943", "urban_service_id": 766988.0, "plot_source": "margin", "floors_source": "osm" }, "geometry": { "type": "Polygon", "coordinates": [ [ [ 30.1559648, 59.8351158 ], [ 30.1555669, 59.8351072 ], [ 30.1555773, 59.8349878 ], [ 30.1559749, 59.8349964 ], [ 30.1559648, 59.8351158 ] ] ] } },
{ "type": "Feature", "properties": { "service": "Полицейский участок", "service_type_id": 78, "type_id": "police_33139457", "capacity": 214, "floors_count": 2, "plot_length_min": 50.0, "plot_length_max": 60.0, "plot_width_min": 35.0, "plot_width_max": 45.0, "address": "улица Лёни Голикова 31 к2", "osm_type": "way", "osm_id": 33139457, "osm_url": "https://www.openstreetmap.org/way/33139457", "urban_service_id": 767016.0, "plot_source": "margin", "floors_source": "osm" }, "geometry": { "type": "Polygon", "coordinates": [ [ [ 30.2282714, 59.8413931 ], [ 30.228281, 59.8412808 ], [ 30.2278037, 59.8412707 ], [ 30.2277941, 59.841383 ], [ 30.2282714, 59.8413931 ] ] ] } },
{ "type": "Feature", "properties": { "service": "Полицейский участок", "service_type_id": 78, "type_id": "police_59047270", "capacity": 214, "floors_count": 3, "plot_length_min": 50.0, "plot_length_max": 60.0, "plot_width_min": 40.0, "plot_width_max": 50.0, "address": "Мончегорская улица 6", "osm_type": "way", "osm_id": 59047270, "osm_url": "https://www.openstreetmap.org/way/59047270", "urban_service_id": 767057.0, "plot_source": "margin", "floors_source": "osm" }, "geometry": { "type": "Polygon", "coordinates": [ [ [ 30.295389, 59.9571599 ], [ 30.2949399, 59.9571507 ], [ 30.2949288, 59.9572921 ], [ 30.2953779, 59.9573013 ], [ 30.295389, 59.9571599 ] ] ] } },
{ "type": "Feature", "properties": { "service": "Полицейский участок", "service_type_id": 78, "type_id": "police_30675119", "capacity": 214, "floors_count": 3, "plot_length_min": 60.0, "plot_length_max": 70.0, "plot_width_min": 35.0, "plot_width_max": 45.0, "address": "Купчинская улица 10 к1", "osm_type": "way", "osm_id": 30675119, "osm_url": "https://www.openstreetmap.org/way/30675119", "urban_service_id": 767007.0, "plot_source": "margin", "floors_source": "osm" }, "geometry": { "type": "Polygon", "coordinates": [ [ [ 30.3865475, 59.8394175 ], [ 30.3871509, 59.8394294 ], [ 30.3871533, 59.8393965 ], [ 30.3871864, 59.8393971 ], [ 30.3871874, 59.8393859 ], [ 30.3871897, 59.8393527 ], [ 30.3871566, 59.8393521 ], [ 30.3871596, 59.8393139 ], [ 30.3865562, 59.839302 ], [ 30.3865532, 59.8393422 ], [ 30.3865137, 59.8393414 ], [ 30.3865121, 59.8393626 ], [ 30.3865105, 59.8393831 ], [ 30.3865501, 59.8393839 ], [ 30.3865475, 59.8394175 ] ] ] } },
{ "type": "Feature", "properties": { "service": "Полицейский участок", "service_type_id": 78, "type_id": "police_30694667", "capacity": 214, "floors_count": 3, "plot_length_min": 65.0, "plot_length_max": 75.0, "plot_width_min": 35.0, "plot_width_max": 45.0, "address": "Малая Балканская улица 48", "osm_type": "way", "osm_id": 30694667, "osm_url": "https://www.openstreetmap.org/way/30694667", "urban_service_id": 766985.0, "plot_source": "margin", "floors_source": "osm" }, "geometry": { "type": "Polygon", "coordinates": [ [ [ 30.4107146, 59.8266108 ], [ 30.4107121, 59.8266401 ], [ 30.4113471, 59.8266526 ], [ 30.4113494, 59.8266232 ], [ 30.411395, 59.8266241 ], [ 30.411399, 59.8265735 ], [ 30.4113535, 59.8265726 ], [ 30.4113569, 59.8265305 ], [ 30.410722, 59.8265181 ], [ 30.4107185, 59.8265601 ], [ 30.4106742, 59.8265593 ], [ 30.4106701, 59.8266099 ], [ 30.4107146, 59.8266108 ] ] ] } },
{ "type": "Feature", "properties": { "service": "Полицейский участок", "service_type_id": 78, "type_id": "police_30695219", "capacity": 214, "floors_count": 3, "plot_length_min": 65.0, "plot_length_max": 75.0, "plot_width_min": 40.0, "plot_width_max": 50.0, "address": "Бухарестская улица 160", "osm_type": "way", "osm_id": 30695219, "osm_url": "https://www.openstreetmap.org/way/30695219", "urban_service_id": 767045.0, "plot_source": "margin", "floors_source": "osm" }, "geometry": { "type": "Polygon", "coordinates": [ [ [ 30.4257635, 59.8293757 ], [ 30.4254345, 59.8293693 ], [ 30.4254382, 59.8293198 ], [ 30.4251996, 59.8293151 ], [ 30.4251959, 59.8293646 ], [ 30.4251396, 59.8293635 ], [ 30.4251371, 59.8293967 ], [ 30.4250864, 59.8293957 ], [ 30.4250829, 59.8294419 ], [ 30.4251318, 59.8294429 ], [ 30.4251288, 59.8294822 ], [ 30.4257547, 59.8294945 ], [ 30.4257578, 59.8294524 ], [ 30.4258039, 59.8294533 ], [ 30.4258077, 59.8294035 ], [ 30.4257615, 59.8294026 ], [ 30.4257635, 59.8293757 ] ] ] } },
{ "type": "Feature", "properties": { "service": "Полицейский участок", "service_type_id": 78, "type_id": "police_31617561", "capacity": 214, "floors_count": 3, "plot_length_min": 60.0, "plot_length_max": 70.0, "plot_width_min": 45.0, "plot_width_max": 55.0, "address": "проспект Славы 53", "osm_type": "way", "osm_id": 31617561, "osm_url": "https://www.openstreetmap.org/way/31617561", "urban_service_id": 767046.0, "plot_source": "margin", "floors_source": "osm" }, "geometry": { "type": "Polygon", "coordinates": [ [ [ 30.4124715, 59.8644548 ], [ 30.4126628, 59.8644584 ], [ 30.4126691, 59.8643774 ], [ 30.4129637, 59.864383 ], [ 30.4129573, 59.8644647 ], [ 30.4131482, 59.8644683 ], [ 30.4131627, 59.864282 ], [ 30.4124859, 59.8642692 ], [ 30.4124715, 59.8644548 ] ] ] } },
{ "type": "Feature", "properties": { "service": "Полицейский участок", "service_type_id": 78, "type_id": "police_48392565", "capacity": 214, "floors_count": 5, "plot_length_min": 115.0, "plot_length_max": 125.0, "plot_width_min": 40.0, "plot_width_max": 50.0, "address": "улица Профессора Попова 42 литВ", "osm_type": "way", "osm_id": 48392565, "osm_url": "https://www.openstreetmap.org/way/48392565", "urban_service_id": 767101.0, "plot_source": "margin", "floors_source": "osm" }, "geometry": { "type": "Polygon", "coordinates": [ [ [ 30.2901643, 59.9704955 ], [ 30.2901744, 59.9703754 ], [ 30.2901781, 59.9703292 ], [ 30.2898827, 59.9703231 ], [ 30.2888627, 59.9703022 ], [ 30.2885553, 59.9702959 ], [ 30.2885508, 59.9703497 ], [ 30.2885414, 59.9704621 ], [ 30.2887811, 59.970467 ], [ 30.2887838, 59.9704335 ], [ 30.2898327, 59.9704551 ], [ 30.2898299, 59.9704886 ], [ 30.2901643, 59.9704955 ] ] ] } },
{ "type": "Feature", "properties": { "service": "Супермаркет", "service_type_id": 89, "type_id": "supermarket_31007175", "capacity": 1609, "floors_count": 2, "plot_length_min": 65.0, "plot_length_max": 75.0, "plot_width_min": 50.0, "plot_width_max": 60.0, "address": "Ленинский проспект 156", "osm_type": "way", "osm_id": 31007175, "osm_url": "https://www.openstreetmap.org/way/31007175", "urban_service_id": 768584.0, "plot_source": "margin", "floors_source": "osm" }, "geometry": { "type": "Polygon", "coordinates": [ [ [ 30.2978536, 59.8523146 ], [ 30.2978402, 59.8524804 ], [ 30.2984287, 59.8524925 ], [ 30.2984421, 59.8523267 ], [ 30.2978536, 59.8523146 ] ] ] } },
{ "type": "Feature", "properties": { "service": "Супермаркет", "service_type_id": 89, "type_id": "supermarket_45477532", "capacity": 1609, "floors_count": 1, "plot_length_min": 65.0, "plot_length_max": 75.0, "plot_width_min": 55.0, "plot_width_max": 65.0, "address": "Разводная улица 45", "osm_type": "way", "osm_id": 45477532, "osm_url": "https://www.openstreetmap.org/way/45477532", "urban_service_id": 768703.0, "plot_source": "margin", "floors_source": "osm" }, "geometry": { "type": "Polygon", "coordinates": [ [ [ 29.8944109, 59.874471 ], [ 29.8947018, 59.8744646 ], [ 29.8948326, 59.8744618 ], [ 29.8949632, 59.8744589 ], [ 29.8949585, 59.8744044 ], [ 29.8950167, 59.8744031 ], [ 29.89501, 59.8743237 ], [ 29.8949518, 59.874325 ], [ 29.894947, 59.8742664 ], [ 29.8943945, 59.8742786 ], [ 29.8944109, 59.874471 ] ] ] } },
{ "type": "Feature", "properties": { "service": "Супермаркет", "service_type_id": 89, "type_id": "supermarket_51138296", "capacity": 1609, "floors_count": 1, "plot_length_min": 70.0, "plot_length_max": 80.0, "plot_width_min": 65.0, "plot_width_max": 75.0, "address": "Малая Посадская улица 13 литБ", "osm_type": "way", "osm_id": 51138296, "osm_url": "https://www.openstreetmap.org/way/51138296", "urban_service_id": 768555.0, "plot_source": "margin", "floors_source": "osm" }, "geometry": { "type": "Polygon", "coordinates": [ [ [ 30.3273688, 59.9570013 ], [ 30.327491, 59.9570061 ], [ 30.3275058, 59.9568895 ], [ 30.3273438, 59.9568845 ], [ 30.3273503, 59.9568339 ], [ 30.3271855, 59.9568291 ], [ 30.32718, 59.9568821 ], [ 30.3268315, 59.9568738 ], [ 30.3268175, 59.9570961 ], [ 30.3273522, 59.9571069 ], [ 30.3273688, 59.9570013 ] ] ] } },
{ "type": "Feature", "properties": { "service": "Супермаркет", "service_type_id": 89, "type_id": "supermarket_75398702", "capacity": 1609, "floors_count": 1, "plot_length_min": 80.0, "plot_length_max": 90.0, "plot_width_min": 55.0, "plot_width_max": 65.0, "address": "Яхтенная улица 38 к1", "osm_type": "way", "osm_id": 75398702, "osm_url": "https://www.openstreetmap.org/way/75398702", "urban_service_id": 768664.0, "plot_source": "margin", "floors_source": "osm" }, "geometry": { "type": "Polygon", "coordinates": [ [ [ 30.2248516, 60.006915 ], [ 30.2240165, 60.0068975 ], [ 30.224011, 60.0069641 ], [ 30.2240919, 60.0069658 ], [ 30.2240794, 60.0071166 ], [ 30.2248337, 60.0071325 ], [ 30.2248516, 60.006915 ] ] ] } },
{ "type": "Feature", "properties": { "service": "Супермаркет", "service_type_id": 89, "type_id": "supermarket_36572226", "capacity": 1609, "floors_count": 1, "plot_length_min": 75.0, "plot_length_max": 85.0, "plot_width_min": 70.0, "plot_width_max": 80.0, "address": "улица Володарского 2", "osm_type": "way", "osm_id": 36572226, "osm_url": "https://www.openstreetmap.org/way/36572226", "urban_service_id": 768576.0, "plot_source": "margin", "floors_source": "osm" }, "geometry": { "type": "Polygon", "coordinates": [ [ [ 29.9716876, 60.0960218 ], [ 29.9718038, 60.0958281 ], [ 29.971808, 60.0957584 ], [ 29.9718874, 60.0957569 ], [ 29.9718708, 60.0956824 ], [ 29.9715268, 60.0956904 ], [ 29.9715395, 60.0957415 ], [ 29.9711215, 60.0957461 ], [ 29.9711221, 60.0960345 ], [ 29.9716876, 60.0960218 ] ] ] } },
{ "type": "Feature", "properties": { "service": "Супермаркет", "service_type_id": 89, "type_id": "supermarket_318121608", "capacity": 1609, "floors_count": 1, "plot_length_min": 75.0, "plot_length_max": 85.0, "plot_width_min": 65.0, "plot_width_max": 75.0, "address": "улица Станюковича 5", "osm_type": "way", "osm_id": 318121608, "osm_url": "https://www.openstreetmap.org/way/318121608", "urban_service_id": 768691.0, "plot_source": "margin", "floors_source": "osm" }, "geometry": { "type": "Polygon", "coordinates": [ [ [ 29.7225334, 60.0099343 ], [ 29.7222223, 60.0099408 ], [ 29.722199, 60.0099412 ], [ 29.7220501, 60.0099443 ], [ 29.721993, 60.0099454 ], [ 29.7220015, 60.0100451 ], [ 29.7217395, 60.0100505 ], [ 29.7217577, 60.0102645 ], [ 29.7225601, 60.010248 ], [ 29.7225553, 60.0101916 ], [ 29.7225334, 60.0099343 ] ] ] } },
{ "type": "Feature", "properties": { "service": "Супермаркет", "service_type_id": 89, "type_id": "supermarket_23523498", "capacity": 1609, "floors_count": 1, "plot_length_min": 85.0, "plot_length_max": 95.0, "plot_width_min": 85.0, "plot_width_max": 95.0, "address": "улица Уточкина 4 к1", "osm_type": "way", "osm_id": 23523498, "osm_url": "https://www.openstreetmap.org/way/23523498", "urban_service_id": 768687.0, "plot_source": "margin", "floors_source": "osm" }, "geometry": { "type": "Polygon", "coordinates": [ [ [ 30.2611321, 60.0106588 ], [ 30.2611193, 60.0108153 ], [ 30.2611054, 60.0109837 ], [ 30.2610963, 60.0110908 ], [ 30.2616369, 60.0111018 ], [ 30.2616324, 60.0111561 ], [ 30.2620359, 60.0111644 ], [ 30.2620769, 60.0111652 ], [ 30.2620867, 60.0110494 ], [ 30.2619748, 60.0110472 ], [ 30.261977, 60.0110201 ], [ 30.262001, 60.0107312 ], [ 30.2613998, 60.010719 ], [ 30.2613509, 60.010718 ], [ 30.2613555, 60.0106629 ], [ 30.2612341, 60.0106602 ], [ 30.2611321, 60.0106588 ] ] ] } },
{ "type": "Feature", "properties": { "service": "Супермаркет", "service_type_id": 89, "type_id": "supermarket_640233773", "capacity": 1609, "floors_count": 1, "plot_length_min": 110.0, "plot_length_max": 120.0, "plot_width_min": 95.0, "plot_width_max": 105.0, "address": "улица Восстановления 17", "osm_type": "way", "osm_id": 640233773, "osm_url": "https://www.openstreetmap.org/way/640233773", "urban_service_id": 768476.0, "plot_source": "margin", "floors_source": "osm" }, "geometry": { "type": "Polygon", "coordinates": [ [ [ 30.084688, 59.7242108 ], [ 30.0833068, 59.72418 ], [ 30.0832602, 59.7247193 ], [ 30.0838158, 59.7247317 ], [ 30.0838145, 59.7247477 ], [ 30.0838129, 59.7247657 ], [ 30.0846385, 59.7247841 ], [ 30.084688, 59.7242108 ] ] ] } },
{ "type": "Feature", "properties": { "service": "Продукты (магазин у дома)", "service_type_id": 90, "type_id": "convenience_89677181", "capacity": 208, "floors_count": 1, "plot_length_min": 20.0, "plot_length_max": 30.0, "plot_width_min": 20.0, "plot_width_max": 30.0, "address": null, "osm_type": "way", "osm_id": 89677181, "osm_url": "https://www.openstreetmap.org/way/89677181", "urban_service_id": 743605.0, "plot_source": "margin", "floors_source": "osm" }, "geometry": { "type": "Polygon", "coordinates": [ [ [ 29.7012548, 60.2064115 ], [ 29.7010768, 60.2064151 ], [ 29.7010812, 60.2064675 ], [ 29.7012592, 60.2064639 ], [ 29.7012548, 60.2064115 ] ] ] } },
{ "type": "Feature", "properties": { "service": "Продукты (магазин у дома)", "service_type_id": 90, "type_id": "convenience_137234765", "capacity": 208, "floors_count": 1, "plot_length_min": 25.0, "plot_length_max": 35.0, "plot_width_min": 20.0, "plot_width_max": 30.0, "address": null, "osm_type": "way", "osm_id": 137234765, "osm_url": "https://www.openstreetmap.org/way/137234765", "urban_service_id": 743635.0, "plot_source": "margin", "floors_source": "osm" }, "geometry": { "type": "Polygon", "coordinates": [ [ [ 30.2200761, 60.028167 ], [ 30.2198868, 60.028163 ], [ 30.2198824, 60.0282188 ], [ 30.2200716, 60.0282228 ], [ 30.2200761, 60.028167 ] ] ] } },
{ "type": "Feature", "properties": { "service": "Продукты (магазин у дома)", "service_type_id": 90, "type_id": "convenience_80138480", "capacity": 208, "floors_count": 1, "plot_length_min": 30.0, "plot_length_max": 40.0, "plot_width_min": 20.0, "plot_width_max": 30.0, "address": null, "osm_type": "way", "osm_id": 80138480, "osm_url": "https://www.openstreetmap.org/way/80138480", "urban_service_id": 743481.0, "plot_source": "margin", "floors_source": "osm" }, "geometry": { "type": "Polygon", "coordinates": [ [ [ 30.2515622, 60.0187915 ], [ 30.251234, 60.0187847 ], [ 30.2512287, 60.0188453 ], [ 30.2513903, 60.0188487 ], [ 30.251557, 60.0188522 ], [ 30.2515622, 60.0187915 ] ] ] } },
{ "type": "Feature", "properties": { "service": "Продукты (магазин у дома)", "service_type_id": 90, "type_id": "convenience_261344505", "capacity": 208, "floors_count": 1, "plot_length_min": 25.0, "plot_length_max": 35.0, "plot_width_min": 20.0, "plot_width_max": 30.0, "address": "улица Десантников", "osm_type": "way", "osm_id": 261344505, "osm_url": "https://www.openstreetmap.org/way/261344505", "urban_service_id": 743656.0, "plot_source": "margin", "floors_source": "osm" }, "geometry": { "type": "Polygon", "coordinates": [ [ [ 30.1979283, 59.8483332 ], [ 30.1981241, 59.848336 ], [ 30.1981814, 59.8483539 ], [ 30.1981748, 59.8484253 ], [ 30.1979193, 59.8484198 ], [ 30.1979283, 59.8483332 ] ] ] } },
{ "type": "Feature", "properties": { "service": "Продукты (магазин у дома)", "service_type_id": 90, "type_id": "convenience_999720255", "capacity": 208, "floors_count": 1, "plot_length_min": 25.0, "plot_length_max": 35.0, "plot_width_min": 25.0, "plot_width_max": 35.0, "address": null, "osm_type": "way", "osm_id": 999720255, "osm_url": "https://www.openstreetmap.org/way/999720255", "urban_service_id": 743552.0, "plot_source": "margin", "floors_source": "osm" }, "geometry": { "type": "Polygon", "coordinates": [ [ [ 30.1484671, 59.7731479 ], [ 30.1486105, 59.773151 ], [ 30.1487334, 59.7731537 ], [ 30.148741, 59.7730612 ], [ 30.1484749, 59.7730553 ], [ 30.1484671, 59.7731479 ] ] ] } },
{ "type": "Feature", "properties": { "service": "Продукты (магазин у дома)", "service_type_id": 90, "type_id": "convenience_132260673", "capacity": 208, "floors_count": 1, "plot_length_min": 30.0, "plot_length_max": 40.0, "plot_width_min": 25.0, "plot_width_max": 35.0, "address": "Цитадельское шоссе 39В", "osm_type": "way", "osm_id": 132260673, "osm_url": "https://www.openstreetmap.org/way/132260673", "urban_service_id": 743554.0, "plot_source": "margin", "floors_source": "osm" }, "geometry": { "type": "Polygon", "coordinates": [ [ [ 29.7227342, 60.0080623 ], [ 29.7224556, 60.008068 ], [ 29.722446, 60.0079558 ], [ 29.7227246, 60.0079501 ], [ 29.7227342, 60.0080623 ] ] ] } },
{ "type": "Feature", "properties": { "service": "Продукты (магазин у дома)", "service_type_id": 90, "type_id": "convenience_79805580", "capacity": 208, "floors_count": 1, "plot_length_min": 35.0, "plot_length_max": 45.0, "plot_width_min": 25.0, "plot_width_max": 35.0, "address": null, "osm_type": "way", "osm_id": 79805580, "osm_url": "https://www.openstreetmap.org/way/79805580", "urban_service_id": 743606.0, "plot_source": "margin", "floors_source": "osm" }, "geometry": { "type": "Polygon", "coordinates": [ [ [ 30.1468874, 59.8358039 ], [ 30.1468777, 59.8359169 ], [ 30.1473098, 59.8359263 ], [ 30.1473195, 59.8358133 ], [ 30.1468874, 59.8358039 ] ] ] } },
{ "type": "Feature", "properties": { "service": "Продукты (магазин у дома)", "service_type_id": 90, "type_id": "convenience_141747747", "capacity": 208, "floors_count": 1, "plot_length_min": 40.0, "plot_length_max": 50.0, "plot_width_min": 35.0, "plot_width_max": 45.0, "address": "Пролетарский проспект 17", "osm_type": "way", "osm_id": 141747747, "osm_url": "https://www.openstreetmap.org/way/141747747", "urban_service_id": 743506.0, "plot_source": "margin", "floors_source": "osm" }, "geometry": { "type": "Polygon", "coordinates": [ [ [ 30.1275249, 60.1233532 ], [ 30.1270589, 60.123343 ], [ 30.1270424, 60.1235352 ], [ 30.1275085, 60.1235453 ], [ 30.1275249, 60.1233532 ] ] ] } },
{ "type": "Feature", "properties": { "service": "Кафе", "service_type_id": 61, "type_id": "cafe_1101225765", "capacity": 61, "floors_count": 1, "plot_length_min": 25.0, "plot_length_max": 35.0, "plot_width_min": 20.0, "plot_width_max": 30.0, "address": null, "osm_type": "way", "osm_id": 1101225765, "osm_url": "https://www.openstreetmap.org/way/1101225765", "urban_service_id": 742909.0, "plot_source": "margin", "floors_source": "osm" }, "geometry": { "type": "Polygon", "coordinates": [ [ [ 30.2851429, 59.9390084 ], [ 30.2851704, 59.9390089 ], [ 30.2853302, 59.9390122 ], [ 30.2853344, 59.9389657 ], [ 30.2852932, 59.9389648 ], [ 30.2851469, 59.938962 ], [ 30.2851429, 59.9390084 ] ] ] } },
{ "type": "Feature", "properties": { "service": "Кафе", "service_type_id": 61, "type_id": "cafe_89563639", "capacity": 61, "floors_count": 1, "plot_length_min": 20.0, "plot_length_max": 30.0, "plot_width_min": 20.0, "plot_width_max": 30.0, "address": "проспект Ленина 9", "osm_type": "way", "osm_id": 89563639, "osm_url": "https://www.openstreetmap.org/way/89563639", "urban_service_id": 742894.0, "plot_source": "margin", "floors_source": "osm" }, "geometry": { "type": "Polygon", "coordinates": [ [ [ 29.7060764, 60.1944664 ], [ 29.7059108, 60.1944698 ], [ 29.7059177, 60.1945515 ], [ 29.7060834, 60.1945481 ], [ 29.7060764, 60.1944664 ] ] ] } },
{ "type": "Feature", "properties": { "service": "Кафе", "service_type_id": 61, "type_id": "cafe_215367930", "capacity": 61, "floors_count": 1, "plot_length_min": 25.0, "plot_length_max": 35.0, "plot_width_min": 20.0, "plot_width_max": 30.0, "address": null, "osm_type": "way", "osm_id": 215367930, "osm_url": "https://www.openstreetmap.org/way/215367930", "urban_service_id": 742803.0, "plot_source": "margin", "floors_source": "osm" }, "geometry": { "type": "Polygon", "coordinates": [ [ [ 30.2928375, 59.9543248 ], [ 30.2928445, 59.9542418 ], [ 30.2930666, 59.9542463 ], [ 30.2930648, 59.9542668 ], [ 30.2930623, 59.9542968 ], [ 30.2930375, 59.9542962 ], [ 30.2930363, 59.9543045 ], [ 30.2929496, 59.9543027 ], [ 30.2929476, 59.954327 ], [ 30.2929121, 59.9543263 ], [ 30.2928375, 59.9543248 ] ] ] } },
{ "type": "Feature", "properties": { "service": "Кафе", "service_type_id": 61, "type_id": "cafe_1102929710", "capacity": 61, "floors_count": 1, "plot_length_min": 25.0, "plot_length_max": 35.0, "plot_width_min": 25.0, "plot_width_max": 35.0, "address": null, "osm_type": "way", "osm_id": 1102929710, "osm_url": "https://www.openstreetmap.org/way/1102929710", "urban_service_id": 742919.0, "plot_source": "margin", "floors_source": "osm" }, "geometry": { "type": "Polygon", "coordinates": [ [ [ 30.2858027, 59.9389561 ], [ 30.2858516, 59.938957 ], [ 30.2859819, 59.9389588 ], [ 30.2860102, 59.9389592 ], [ 30.2860016, 59.9390501 ], [ 30.2859523, 59.9390496 ], [ 30.2859533, 59.939039 ], [ 30.2859227, 59.9390386 ], [ 30.2857963, 59.9390369 ], [ 30.2857975, 59.939019 ], [ 30.2858009, 59.9389889 ], [ 30.2858027, 59.9389561 ] ] ] } },
{ "type": "Feature", "properties": { "service": "Кафе", "service_type_id": 61, "type_id": "cafe_110109811", "capacity": 61, "floors_count": 1, "plot_length_min": 25.0, "plot_length_max": 35.0, "plot_width_min": 25.0, "plot_width_max": 35.0, "address": null, "osm_type": "way", "osm_id": 110109811, "osm_url": "https://www.openstreetmap.org/way/110109811", "urban_service_id": 742854.0, "plot_source": "margin", "floors_source": "osm" }, "geometry": { "type": "Polygon", "coordinates": [ [ [ 30.2555992, 59.9775541 ], [ 30.2555047, 59.9775521 ], [ 30.2553453, 59.9775488 ], [ 30.2553537, 59.9774523 ], [ 30.2553782, 59.9774528 ], [ 30.2556074, 59.9774575 ], [ 30.2555992, 59.9775541 ] ] ] } },
{ "type": "Feature", "properties": { "service": "Кафе", "service_type_id": 61, "type_id": "cafe_65623754", "capacity": 61, "floors_count": 1, "plot_length_min": 25.0, "plot_length_max": 35.0, "plot_width_min": 25.0, "plot_width_max": 35.0, "address": "27-я линия В.О. 16", "osm_type": "way", "osm_id": 65623754, "osm_url": "https://www.openstreetmap.org/way/65623754", "urban_service_id": 742917.0, "plot_source": "margin", "floors_source": "osm" }, "geometry": { "type": "Polygon", "coordinates": [ [ [ 30.2554532, 59.9319962 ], [ 30.2552064, 59.931991 ], [ 30.2551971, 59.9321064 ], [ 30.2554439, 59.9321116 ], [ 30.2554532, 59.9319962 ] ] ] } },
{ "type": "Feature", "properties": { "service": "Кафе", "service_type_id": 61, "type_id": "cafe_141573794", "capacity": 61, "floors_count": 1, "plot_length_min": 35.0, "plot_length_max": 45.0, "plot_width_min": 35.0, "plot_width_max": 45.0, "address": "улица Маршала Говорова 29 литАУ", "osm_type": "way", "osm_id": 141573794, "osm_url": "https://www.openstreetmap.org/way/141573794", "urban_service_id": 742938.0, "plot_source": "margin", "floors_source": "osm" }, "geometry": { "type": "Polygon", "coordinates": [ [ [ 30.2769169, 59.8847844 ], [ 30.2769483, 59.884785 ], [ 30.2771479, 59.8847892 ], [ 30.2771584, 59.8846632 ], [ 30.2773169, 59.8846665 ], [ 30.2773214, 59.8846122 ], [ 30.2771601, 59.8846089 ], [ 30.2769321, 59.8846041 ], [ 30.2769169, 59.8847844 ] ] ] } },
{ "type": "Feature", "properties": { "service": "Кафе", "service_type_id": 61, "type_id": "cafe_330820742", "capacity": 61, "floors_count": 1, "plot_length_min": 40.0, "plot_length_max": 50.0, "plot_width_min": 30.0, "plot_width_max": 40.0, "address": "Батарейная дорога 8 к1", "osm_type": "way", "osm_id": 330820742, "osm_url": "https://www.openstreetmap.org/way/330820742", "urban_service_id": 742825.0, "plot_source": "margin", "floors_source": "osm" }, "geometry": { "type": "Polygon", "coordinates": [ [ [ 30.2543508, 59.9710782 ], [ 30.2543368, 59.9712462 ], [ 30.2538658, 59.9712363 ], [ 30.2538797, 59.9710683 ], [ 30.2543508, 59.9710782 ] ] ] } }
]
}
